id;name;postal_code;commune;numero;voie;lieu_dit;code_insee;siret;activite;contact_url;site_internet;longitude;latitude;transport_station_presence;stationnement_presence;stationnement_pmr;stationnement_ext_presence;stationnement_ext_pmr;cheminement_ext_presence;cheminement_ext_terrain_stable;cheminement_ext_plain_pied;cheminement_ext_ascenseur;cheminement_ext_nombre_marches;cheminement_ext_reperage_marches;cheminement_ext_sens_marches;cheminement_ext_main_courante;cheminement_ext_rampe;cheminement_ext_pente_presence;cheminement_ext_pente_degre_difficulte;cheminement_ext_pente_longueur;cheminement_ext_devers;cheminement_ext_bande_guidage;cheminement_ext_retrecissement;entree_reperage;entree_vitree;entree_vitree_vitrophanie;entree_plain_pied;entree_ascenseur;entree_marches;entree_marches_reperage;entree_marches_main_courante;entree_marches_rampe;entree_marches_sens;entree_dispositif_appel;entree_dispositif_appel_type;entree_balise_sonore;entree_aide_humaine;entree_largeur_mini;entree_pmr;entree_porte_presence;entree_porte_manoeuvre;entree_porte_type;accueil_visibilite;accueil_personnels;accueil_equipements_malentendants_presence;accueil_equipements_malentendants;accueil_cheminement_plain_pied;accueil_cheminement_ascenseur;accueil_cheminement_nombre_marches;accueil_cheminement_reperage_marches;accueil_cheminement_main_courante;accueil_cheminement_rampe;accueil_cheminement_sens_marches;accueil_retrecissement;sanitaires_presence;sanitaires_adaptes;labels;labels_familles_handicap;registre_url;conformite
2;Agence Nestenn Immobilier;34300;AGDE;65; Rue Brescou;;34003;81378429500020;Agence immobili�re;https://immobilier-agde.nestenn.com/contact;https://immobilier-agde.nestenn.com/;3.4743220;43.3103870;True;;;True;;;;;;;;;;;;;;;;;;;;;;;;;;;;;False;True;;;True;;;;;;;;;;;;;;;;;;;;
3;Agence Nestenn Immobilier;47000;AGEN;163; Boulevard Carnot;;47001;84338490000018;Agence immobili�re;https://immobilier-agen.nestenn.com/contact;https://immobilier-agen.nestenn.com/;0.6227960;44.2070360;True;;;True;;;;;;;;;;;;;;;;;;;;;;;;;;;;;False;True;;;True;;;;;;;;;;;;;;;;;;;;
4;Agence Nestenn Immobilier;20000;AJACCIO CENTRE;57; rue Cardinal Fesch;;20004;90207837700014;Agence immobili�re;https://immobilier-ajaccio.nestenn.com/contact;https://immobilier-ajaccio.nestenn.com/;8.7384200;41.9239100;True;;;True;;;;;;;;;;;;;;;;;;;;;;;;;;;;;False;True;;;True;;;;;;;;;;;;;;;;;;;;
5;Agence Nestenn Immobilier;20090;AJACCIO FRANCHINI;;"Espace Eug�nie
Avenue No�l Franchini";;20004;90207837700014;Agence immobili�re;https://immobilier-ajaccio.nestenn.com/contact;https://immobilier-ajaccio.nestenn.com/;8.754771419722639;41.93853392014029;True;;;True;;;;;;;;;;;;;;;;;;;;;;;;;;;;;False;True;;;True;;;;;;;;;;;;;;;;;;;;
6;Agence Nestenn Immobilier;80300;ALBERT;2; Rue Gambetta;;80016;53073260100014;Agence immobili�re;https://immobilier-albert.nestenn.com/contact;https://immobilier-albert.nestenn.com/;2.6470000;50.0038100;True;;;True;;;;;;;;;;;;;;;;;;;;;;;;;;;;;False;True;;;True;;;;;;;;;;;;;;;;;;;;
7;Agence Nestenn Immobilier;81000;ALBI;126; Avenue de Saint-Ju�ry;;81004;88114352300028;Agence immobili�re;https://immobilier-albi.nestenn.com/contact;https://immobilier-albi.nestenn.com/;2.1811210;43.9367910;True;;;True;;;;;;;;;;;;;;;;;;;;;;;;;;;;;False;True;;;True;;;;;;;;;;;;;;;;;;;;
8;Agence Nestenn Immobilier;13190;ALLAUCH;164;Avenue Lei Rima;;13002;79233962400019;Agence immobili�re;https://immobilier-allauch.nestenn.com/contact;https://immobilier-allauch.nestenn.com/;5.4884000;43.3573000;True;;;True;;;;;;;;;;;;;;;;;;;;;;;;;;;;;False;True;;;True;;;;;;;;;;;;;;;;;;;;
9;Agence Nestenn Immobilier;1500;AMBERIEU EN BUGEY;41; Avenue du g�n�ral de Gaulle;;1004;85100555300017;Agence immobili�re;https://immobilier-amberieu-en-bugey.nestenn.com/contact;https://immobilier-amberieu-en-bugey.nestenn.com/;5.3544783;45.9640038;True;;;True;;;;;;;;;;;;;;;;;;;;;;;;;;;;;False;True;;;True;;;;;;;;;;;;;;;;;;;;
10;Agence Nestenn Immobilier;37400;AMBOISE;1; Rue Voltaire;;37003;81394923700016;Agence immobili�re;https://immobilier-amboise.nestenn.com/contact;https://immobilier-amboise.nestenn.com/;0.9815000;47.4119600;True;;;True;;;;;;;;;;;;;;;;;;;;;;;;;;;;;False;True;;;True;;;;;;;;;;;;;;;;;;;;
11;Agence Nestenn Immobilier;80000;AMIENS CENTRE;17; Rue de Beauvais;;80021;90163329700014;Agence immobili�re;https://immobilier-amiens-centre.nestenn.com/contact;https://immobilier-amiens-centre.nestenn.com/;2.2938000;49.8928000;True;;;True;;;;;;;;;;;;;;;;;;;;;;;;;;;;;False;True;;;True;;;;;;;;;;;;;;;;;;;;
12;Agence Nestenn Immobilier;80000;AMIENS SUD;122; Rue Alexandre Dumas;;80021;89370656400018;Agence immobili�re;https://immobilier-amiens-sud.nestenn.com/contact;https://immobilier-amiens-sud.nestenn.com/;2.2872000;49.8748000;True;;;True;;;;;;;;;;;;;;;;;;;;;;;;;;;;;False;True;;;True;;;;;;;;;;;;;;;;;;;;
13;Agence Nestenn Immobilier;44150;ANCENIS;79; Boulevard du Docteur Moutel;;44003;79428058600015;Agence immobili�re;https://immobilier-ancenis.nestenn.com/contact;https://immobilier-ancenis.nestenn.com/;-1.1770859;47.3709013;True;;;True;;;;;;;;;;;;;;;;;;;;;;;;;;;;;False;True;;;True;;;;;;;;;;;;;;;;;;;;
14;Agence Nestenn Immobilier;33510;ANDERNOS-LES-BAINS;11; Boulevard de la R�publique;;33005;88423422000025;Agence immobili�re;https://immobilier-andernos.nestenn.com/contact;https://immobilier-andernos.nestenn.com/;-1.0801702;44.7320880;True;;;True;;;;;;;;;;;;;;;;;;;;;;;;;;;;;False;True;;;True;;;;;;;;;;;;;;;;;;;;
15;Agence Nestenn Immobilier;49100;ANGERS DOUTRE;5; Bis Boulevard Henri Arnauld;;49007;79844175400016;Agence immobili�re;https://immobilier-angers-doutre.nestenn.com/contact;https://immobilier-angers-doutre.nestenn.com/;-0.5607000;47.4740600;True;;;True;;;;;;;;;;;;;;;;;;;;;;;;;;;;;False;True;;;True;;;;;;;;;;;;;;;;;;;;
16;Agence Nestenn Immobilier;49100;ANGERS LA MADELEINE;4; Rue Saumuroise;;49007;89448200900012;Agence immobili�re;https://immobilier-angers-madeleine.nestenn.com/contact;https://immobilier-angers-madeleine.nestenn.com/;-0.5370000;47.4599600;True;;;True;;;;;;;;;;;;;;;;;;;;;;;;;;;;;False;True;;;True;;;;;;;;;;;;;;;;;;;;
17;Agence Nestenn Immobilier;49100;"ANGERS
FOCH";37;Boulevard du Mar�chal Foch;;49007;53536511800012;Agence immobili�re;https://immobilier-angers-centre.nestenn.com/contact;https://immobilier-angers-centre.nestenn.com/;-0.5503000;47.4683700;True;;;True;;;;;;;;;;;;;;;;;;;;;;;;;;;;;False;True;;;True;;;;;;;;;;;;;;;;;;;;
18;Agence Nestenn Immobilier;91670;ANGERVILLE;38; Rue Nationale;;91016;42302430600023;Agence immobili�re;https://immobilier-angerville.nestenn.com/contact;https://immobilier-angerville.nestenn.com/;2.0415159;48.3457340;True;;;True;;;;;;;;;;;;;;;;;;;;;;;;;;;;;False;True;;;True;;;;;;;;;;;;;;;;;;;;
19;Agence Nestenn Immobilier;74370;"ANNECY NORD
EPAGNY METZ-TESSY";67;Centre Ccial Grand Epagny Route C�te Merle;;74112;88943187000019;Agence immobili�re;https://immobilier-annecy-nord.nestenn.com/contact;https://immobilier-annecy-nord.nestenn.com/;6.1079460;45.9286280;True;;;True;;;;;;;;;;;;;;;;;;;;;;;;;;;;;False;True;;;True;;;;;;;;;;;;;;;;;;;;
20;Agence Nestenn Immobilier;74960;ANNECY SUD;7; Avenue du Pont Neuf;;74010;82036580700024;Agence immobili�re;https://immobilier-annecy-sud.nestenn.com/contact;https://immobilier-annecy-sud.nestenn.com/;6.1131718;45.8967160;True;;;True;;;;;;;;;;;;;;;;;;;;;;;;;;;;;False;True;;;True;;;;;;;;;;;;;;;;;;;;
21;Agence Nestenn Immobilier;6600;ANTIBES JUAN LES PINS;29; boulevard Albert 1er;;6004;52456908400022;Agence immobili�re;https://immobilier-antibes-juanlespins.nestenn.com/contact;https://immobilier-antibes-juanlespins.nestenn.com/;7.1240700;43.5775900;True;;;True;;;;;;;;;;;;;;;;;;;;;;;;;;;;;False;True;;;True;;;;;;;;;;;;;;;;;;;;
22;Agence Nestenn Immobilier;92160;ANTONY;2;Avenue de la Providence;;92002;88205104800016;Agence immobili�re;https://immobilier-antony.nestenn.com/contact;https://immobilier-antony.nestenn.com/;2.3052918;48.7561100;True;;;True;;;;;;;;;;;;;;;;;;;;;;;;;;;;;False;True;;;True;;;;;;;;;;;;;;;;;;;;
23;Agence Nestenn Immobilier;84400;APT;14;Rue Estienne d'Orves;;84003;50956421700016;Agence immobili�re;https://immobilier-apt.nestenn.com/contact;https://immobilier-apt.nestenn.com/;5.3969200;43.8769000;True;;;True;;;;;;;;;;;;;;;;;;;;;;;;;;;;;False;True;;;True;;;;;;;;;;;;;;;;;;;;
24;Agence Nestenn Immobilier;92600;ASNIERES SUR SEINE;51;Avenue de la Marne;;92004;75012418200023;Agence immobili�re;https://immobilier-asnieres-sur-seine.nestenn.com/contact;https://immobilier-asnieres-sur-seine.nestenn.com/;2.2831198;48.9076603;True;;;True;;;;;;;;;;;;;;;;;;;;;;;;;;;;;False;True;;;True;;;;;;;;;;;;;;;;;;;;
25;Agence Nestenn Immobilier;13400;AUBAGNE;30;Boulevard de la R�publique;;13005;90099600000015;Agence immobili�re;https://immobilier-aubagne.nestenn.com/contact;https://immobilier-aubagne.nestenn.com/;5.5710350;43.2904260;True;;;True;;;;;;;;;;;;;;;;;;;;;;;;;;;;;False;True;;;True;;;;;;;;;;;;;;;;;;;;
26;Agence Nestenn Immobilier;85430;AUBIGNY LES CLOUZEAUX;59; Bis Grande Rue;;85008;49794325800028;Agence immobili�re;https://immobilier-aubignylesclouzeaux.nestenn.com/contact;https://immobilier-aubignylesclouzeaux.nestenn.com/;-1.5068850;46.6299800;True;;;True;;;;;;;;;;;;;;;;;;;;;;;;;;;;;False;True;;;True;;;;;;;;;;;;;;;;;;;;
27;Agence Nestenn Immobilier;56400;AURAY;23;Avenue Wilson;;56007;89034088800019;Agence immobili�re;https://immobilier-auray.nestenn.com/contact;https://immobilier-auray.nestenn.com/;-2.9820427;47.6666216;True;;;True;;;;;;;;;;;;;;;;;;;;;;;;;;;;;False;True;;;True;;;;;;;;;;;;;;;;;;;;
28;Agence Nestenn Immobilier;84000;AVIGNON;95;Avenue Pierre Semard;;84007;48242166600017;Agence immobili�re;https://immobilier-avignon.nestenn.com/contact;https://immobilier-avignon.nestenn.com/;4.8268000;43.9367000;True;;;True;;;;;;;;;;;;;;;;;;;;;;;;;;;;;False;True;;;True;;;;;;;;;;;;;;;;;;;;
29;Agence Nestenn Immobilier;77210;AVON;49;Avenue Franklin Roosevelt;;77014;48754301900029;Agence immobili�re;https://immobilier-avon.nestenn.com/contact;https://immobilier-avon.nestenn.com/;2.7226500;48.4161900;True;;;True;;;;;;;;;;;;;;;;;;;;;;;;;;;;;False;True;;;True;;;;;;;;;;;;;;;;;;;;
30;Agence Nestenn Immobilier;49240;AVRILLE;78; Avenue Mend�s France;;49015;75162099800011;Agence immobili�re;https://immobilier-avrille.nestenn.com/contact;https://immobilier-avrille.nestenn.com/;-0.5884998;47.5059648;True;;;True;;;;;;;;;;;;;;;;;;;;;;;;;;;;;False;True;;;True;;;;;;;;;;;;;;;;;;;;
31;Agence Nestenn Immobilier;93170;BAGNOLET;64; rue Sadi Carnot;;93006;47897087400010;Agence immobili�re;https://immobilier-bagnolet.nestenn.com/contact;https://immobilier-bagnolet.nestenn.com/;2.4198200;48.8694400;True;;;True;;;;;;;;;;;;;;;;;;;;;;;;;;;;;False;True;;;True;;;;;;;;;;;;;;;;;;;;
32;Agence Nestenn Immobilier;97122;BAIE MAHAULT  GUADELOUPE;42;rue Ferdinand Forest;;97103;90086564300010;Agence immobili�re;https://immobilier-baie-mahault.nestenn.com/contact;https://immobilier-baie-mahault.nestenn.com/;-61.5872380;16.2674780;True;;;True;;;;;;;;;;;;;;;;;;;;;;;;;;;;;False;True;;;True;;;;;;;;;;;;;;;;;;;;
33;Agence Nestenn Immobilier;83150;BANDOL;9; Rue de la R�publique;;83009;88526037200010;Agence immobili�re;https://immobilier-bandol.nestenn.com/contact;https://immobilier-bandol.nestenn.com/;5.7513433;43.1356280;True;;;True;;;;;;;;;;;;;;;;;;;;;;;;;;;;;False;True;;;True;;;;;;;;;;;;;;;;;;;;
34;Agence Nestenn Immobilier;55000;BAR LE DUC;1; Rue Bar la Ville;;55029;88215433900023;Agence immobili�re;https://immobilier-bar-le-duc.nestenn.com/contact;https://immobilier-bar-le-duc.nestenn.com/;5.1609920;48.7758730;True;;;True;;;;;;;;;;;;;;;;;;;;;;;;;;;;;False;True;;;True;;;;;;;;;;;;;;;;;;;;
35;Agence Nestenn Immobilier;64100;BAYONNE;29;Avenue de la L�gion Tch�que;;64102;44455671600025;Agence immobili�re;https://immobilier-bayonne.nestenn.com/contact;https://immobilier-bayonne.nestenn.com/;-1.4868160;43.4923710;True;;;True;;;;;;;;;;;;;;;;;;;;;;;;;;;;;False;True;;;True;;;;;;;;;;;;;;;;;;;;
36;Agence Nestenn Immobilier;49250;BEAUFORT EN ANJOU;6;Rue de la Poissoni�re;;49021;48500136600031;Agence immobili�re;https://immobilier-beaufort-en-anjou.nestenn.com/contact;https://immobilier-beaufort-en-anjou.nestenn.com/;-0.2153130;47.4402820;True;;;True;;;;;;;;;;;;;;;;;;;;;;;;;;;;;False;True;;;True;;;;;;;;;;;;;;;;;;;;
37;Agence Nestenn Immobilier;85230;BEAUVOIR SUR MER;14;Grande Place;;85018;43367095700029;Agence immobili�re;https://immobilier-challans-beauvoir.nestenn.com/contact;https://immobilier-challans-beauvoir.nestenn.com/;-2.0436072;46.9159510;True;;;True;;;;;;;;;;;;;;;;;;;;;;;;;;;;;False;True;;;True;;;;;;;;;;;;;;;;;;;;
38;Agence Nestenn Immobilier;33130;BEGLES;32;Cours Victor Hugo;;33039;48021178800025;Agence immobili�re;https://immobilier-begles.nestenn.com/contact;https://immobilier-begles.nestenn.com/;-0.5663727;44.8119016;True;;;True;;;;;;;;;;;;;;;;;;;;;;;;;;;;;False;True;;;True;;;;;;;;;;;;;;;;;;;;
39;Agence Nestenn Immobilier;69220;BELLEVILLE;39;"Rue de la R�publique
3 Rue Victor Hugo";;69019;75121046900019;Agence immobili�re;https://immobilier-belleville.nestenn.com/contact;https://immobilier-belleville.nestenn.com/;4.7497400;46.1088300;True;;;True;;;;;;;;;;;;;;;;;;;;;;;;;;;;;False;True;;;True;;;;;;;;;;;;;;;;;;;;
40;Agence Nestenn Immobilier;24100;BERGERAC;35;Rue Neuve d�Argenson;;24037;50354891900029;Agence immobili�re;https://immobilier-bergerac.nestenn.com/contact;https://immobilier-bergerac.nestenn.com/;0.4858500;44.8528100;True;;;True;;;;;;;;;;;;;;;;;;;;;;;;;;;;;False;True;;;True;;;;;;;;;;;;;;;;;;;;
41;Agence Nestenn Immobilier;95550;BESSANCOURT;7; Rue de Paris;;95060;44515113700012;Agence immobili�re;https://immobilier-bessancourt.nestenn.com/contact;https://immobilier-bessancourt.nestenn.com/;2.2125019;49.0366505;True;;;True;;;;;;;;;;;;;;;;;;;;;;;;;;;;;False;True;;;True;;;;;;;;;;;;;;;;;;;;
42;Agence Nestenn Immobilier;35830;BETTON;21; bis Rue de Rennes;;35024;44897728000016;Agence immobili�re;https://immobilier-betton.nestenn.com/contact;https://immobilier-betton.nestenn.com/;-1.6380760;48.1789367;True;;;True;;;;;;;;;;;;;;;;;;;;;;;;;;;;;False;True;;;True;;;;;;;;;;;;;;;;;;;;
43;Agence Nestenn Immobilier;64200;BIARRITZ;;"R�sidence le Colis�e
 rue de la Bergerie ";;64122;89196098100019;Agence immobili�re;https://immobilier-biarritz.nestenn.com/contact;https://immobilier-biarritz.nestenn.com/;-1.5521000;43.4859000;True;;;True;;;;;;;;;;;;;;;;;;;;;;;;;;;;;False;True;;;True;;;;;;;;;;;;;;;;;;;;
44;Agence Nestenn Immobilier;20620;BIGUGLIA - CORSE;;RN 193 Casatorra;;20037;48862731600018;Agence immobili�re;https://immobilier-bastia.nestenn.com/contact;https://immobilier-bastia.nestenn.com/;9.4361480;42.6232570;True;;;True;;;;;;;;;;;;;;;;;;;;;;;;;;;;;False;True;;;True;;;;;;;;;;;;;;;;;;;;
45;Agence Nestenn Immobilier;41000;BLOIS;13; Rue Anne de Bretagne;;41018;50197304400016;Agence immobili�re;https://immobilier-blois.nestenn.com/contact;https://immobilier-blois.nestenn.com/;1.3330600;47.5853000;True;;;True;;;;;;;;;;;;;;;;;;;;;;;;;;;;;False;True;;;True;;;;;;;;;;;;;;;;;;;;
46;Agence Nestenn Immobilier;92270;BOIS COLOMBES;25;rue d'Estienne d'Orves;;92009;89476061000028;Agence immobili�re;https://immobilier-bois-colombes.nestenn.com/contact;https://immobilier-bois-colombes.nestenn.com/;2.2724200;48.9168000;True;;;True;;;;;;;;;;;;;;;;;;;;;;;;;;;;;False;True;;;True;;;;;;;;;;;;;;;;;;;;
47;Agence Nestenn Immobilier;78390;BOIS D'ARCY;4;Ter, avenue Arletty;;78073;50093544000015;Agence immobili�re;https://immobilier-st-cyr-l-ecole.nestenn.com/contact;https://immobilier-st-cyr-l-ecole.nestenn.com/;2.0097013;48.8030240;True;;;True;;;;;;;;;;;;;;;;;;;;;;;;;;;;;False;True;;;True;;;;;;;;;;;;;;;;;;;;
48;Agence Nestenn Immobilier;74890;BONS EN CHABLAIS;;Place des Allobroges;;74043;39195128200030;Agence immobili�re;https://immobilier-bons-en-chablais.nestenn.com/contact;https://immobilier-bons-en-chablais.nestenn.com/;6.3701000;46.2649000;True;;;True;;;;;;;;;;;;;;;;;;;;;;;;;;;;;False;True;;;True;;;;;;;;;;;;;;;;;;;;
49;Agence Nestenn Immobilier;33100;BORDEAUX BASTIDE;41; Avenue Thiers;;33063;85130370100011;Agence immobili�re;https://immobilier-bordeaux-bastide.nestenn.com/contact;https://immobilier-bordeaux-bastide.nestenn.com/;-0.5571980;44.8416080;True;;;True;;;;;;;;;;;;;;;;;;;;;;;;;;;;;False;True;;;True;;;;;;;;;;;;;;;;;;;;
50;Agence Nestenn Immobilier;13320;BOUC BEL AIR;491; Avenue de la Croix d'Or - R�sidence les jardins de la Mounine;;13015;87875655000017;Agence immobili�re;https://immobilier-bouc-bel-air.nestenn.com/contact;https://immobilier-bouc-bel-air.nestenn.com/;5.4058633;43.4606500;True;;;True;;;;;;;;;;;;;;;;;;;;;;;;;;;;;False;True;;;True;;;;;;;;;;;;;;;;;;;;
51;Agence Nestenn Immobilier;1000;BOURG EN BRESSE;8; Rue Charles Robin;;1053;81915935100017;Agence immobili�re;https://immobilier-bourg-en-bresse.nestenn.com/contact;https://immobilier-bourg-en-bresse.nestenn.com/;5.2296490;46.2055840;True;;;True;;;;;;;;;;;;;;;;;;;;;;;;;;;;;False;True;;;True;;;;;;;;;;;;;;;;;;;;
52;Agence Nestenn Immobilier;38400;BOURGOIN JALLIEU;1;Rue Pontcottier;;38053;;Agence immobili�re;https://immobilier-bourgoin-jallieu.nestenn.com/contact;https://immobilier-bourgoin-jallieu.nestenn.com/;5.2795330;45.5853600;True;;;True;;;;;;;;;;;;;;;;;;;;;;;;;;;;;False;True;;;True;;;;;;;;;;;;;;;;;;;;
53;Agence Nestenn Immobilier;45300;BOYNES;11; place Louis Veuillot;;45050;49212284100017;Agence immobili�re;https://immobilier-boynes.nestenn.com/contact;https://immobilier-boynes.nestenn.com/;2.3591900;48.1204750;True;;;True;;;;;;;;;;;;;;;;;;;;;;;;;;;;;False;True;;;True;;;;;;;;;;;;;;;;;;;;
54;Agence Nestenn Immobilier;29200;BREST;7;rue de Siam;;29019;83838408900010;Agence immobili�re;https://immobilier-brest.nestenn.com/contact;https://immobilier-brest.nestenn.com/;-4.4932770;48.3845860;True;;;True;;;;;;;;;;;;;;;;;;;;;;;;;;;;;False;True;;;True;;;;;;;;;;;;;;;;;;;;
55;Agence Nestenn Immobilier;29510;BRIEC;6;Place Pierre Barre;;29020;49943927100010;Agence immobili�re;https://immobilier-briec.nestenn.com/contact;https://immobilier-briec.nestenn.com/;-4.0126000;48.1009000;True;;;True;;;;;;;;;;;;;;;;;;;;;;;;;;;;;False;True;;;True;;;;;;;;;;;;;;;;;;;;
56;Agence Nestenn Immobilier;69530;BRIGNAIS;22;Rue Colonel  Robert guillaud;;69027;84076904600011;Agence immobili�re;https://immobilier-brignais.nestenn.com/contact;https://immobilier-brignais.nestenn.com/;4.7550580;45.6736990;True;;;True;;;;;;;;;;;;;;;;;;;;;;;;;;;;;False;True;;;True;;;;;;;;;;;;;;;;;;;;
57;Agence Nestenn Immobilier;83170;BRIGNOLES;7;Candelon RN  route de Marseille ;;83023;80264522600019;Agence immobili�re;https://immobilier-brignoles.nestenn.com/contact;https://immobilier-brignoles.nestenn.com/;6.0531100;43.4077000;True;;;True;;;;;;;;;;;;;;;;;;;;;;;;;;;;;False;True;;;True;;;;;;;;;;;;;;;;;;;;
58;Agence Nestenn Immobilier;19100;BRIVE LA GAILLARDE;19; Boulevard Mirabeau;;19031;84339697900026;Agence immobili�re;https://immobilier-brive-la-gaillarde.nestenn.com/contact;https://immobilier-brive-la-gaillarde.nestenn.com/;1.5183547;45.1650707;True;;;True;;;;;;;;;;;;;;;;;;;;;;;;;;;;;False;True;;;True;;;;;;;;;;;;;;;;;;;;
59;Agence Nestenn Immobilier;69500;BRON;99;Avenue Camille Rousset;;69029;90050858100015;Agence immobili�re;https://immobilier-bron.nestenn.com/contact;https://immobilier-bron.nestenn.com/;4.9128288;45.7316283;True;;;True;;;;;;;;;;;;;;;;;;;;;;;;;;;;;False;True;;;True;;;;;;;;;;;;;;;;;;;;
60;Agence Nestenn Immobilier;35170;BRUZ;6;Rue Alphonse Legault;;35047;50435222000017;Agence immobili�re;https://immobilier-bruz.nestenn.com/contact;https://immobilier-bruz.nestenn.com/;-1.7466140;48.0246716;True;;;True;;;;;;;;;;;;;;;;;;;;;;;;;;;;;False;True;;;True;;;;;;;;;;;;;;;;;;;;
61;Agence Nestenn Immobilier;6400;CANNES;17;Boulevard Victor Tuby;;6029;80892516800037;Agence immobili�re;https://immobilier-cannes.nestenn.com/contact;https://immobilier-cannes.nestenn.com/;7.0173690;43.5528470;True;;;True;;;;;;;;;;;;;;;;;;;;;;;;;;;;;False;True;;;True;;;;;;;;;;;;;;;;;;;;
62;Agence Nestenn Immobilier;40130;CAPBRETON;;"Place de la Gare
R�sidence le Ch�telet";;40065;53490944500015;Agence immobili�re;https://immobilier-capbreton.nestenn.com/contact;https://immobilier-capbreton.nestenn.com/;-1.4259000;43.6410800;True;;;True;;;;;;;;;;;;;;;;;;;;;;;;;;;;;False;True;;;True;;;;;;;;;;;;;;;;;;;;
63;Agence Nestenn Immobilier;31390;CARBONNE;5; Rue Jean Jaur�s;;31107;48206309600028;Agence immobili�re;https://immobilier-carbonne.nestenn.com/contact;https://immobilier-carbonne.nestenn.com/;1.2256500;43.2944300;True;;;True;;;;;;;;;;;;;;;;;;;;;;;;;;;;;False;True;;;True;;;;;;;;;;;;;;;;;;;;
64;Agence Nestenn Immobilier;11000;CARCASSONNE;76; All�e d'I�na;;11069;38171501000017;Agence immobili�re;https://immobilier-carcassonne.nestenn.com/contact;https://immobilier-carcassonne.nestenn.com/;2.3453400;43.2160530;True;;;True;;;;;;;;;;;;;;;;;;;;;;;;;;;;;False;True;;;True;;;;;;;;;;;;;;;;;;;;
65;Agence Nestenn Immobilier;56340;CARNAC;44;Avenue des Druides;;56034;54009411700012;Agence immobili�re;https://immobilier-carnac.nestenn.com/contact;https://immobilier-carnac.nestenn.com/;-3.0762739;47.5733028;True;;;True;;;;;;;;;;;;;;;;;;;;;;;;;;;;;False;True;;;True;;;;;;;;;;;;;;;;;;;;
66;Agence Nestenn Immobilier;84200;CARPENTRAS;130; Place de Verdun;;84031;88531775000010;Agence immobili�re;https://immobilier-carpentras.nestenn.com/contact;https://immobilier-carpentras.nestenn.com/;5.0524688;44.0556880;True;;;True;;;;;;;;;;;;;;;;;;;;;;;;;;;;;False;True;;;True;;;;;;;;;;;;;;;;;;;;
67;Agence Nestenn Immobilier;44470;CARQUEFOU;4;rue des Halles;;44026;44856242100041;Agence immobili�re;https://immobilier-carquefou.nestenn.com/contact;https://immobilier-carquefou.nestenn.com/;-1.4920686;47.2980184;True;;;True;;;;;;;;;;;;;;;;;;;;;;;;;;;;;False;True;;;True;;;;;;;;;;;;;;;;;;;;
68;Agence Nestenn Immobilier;83320;CARQUEIRANNE;39;Boulevard du G�n�ral de Gaulle;;83034;41221951100059;Agence immobili�re;https://immobilier-carqueiranne.nestenn.com/contact;https://immobilier-carqueiranne.nestenn.com/;6.0774000;43.0882000;True;;;True;;;;;;;;;;;;;;;;;;;;;;;;;;;;;False;True;;;True;;;;;;;;;;;;;;;;;;;;
69;Agence Nestenn Immobilier;31320;CASTANET TOLOSAN;34;Avenue de Toulouse;;31113;52860330100029;Agence immobili�re;https://immobilier-castanet-tolosan.nestenn.com/contact;https://immobilier-castanet-tolosan.nestenn.com/;1.4971909;43.5181514;True;;;True;;;;;;;;;;;;;;;;;;;;;;;;;;;;;False;True;;;True;;;;;;;;;;;;;;;;;;;;
70;Agence Nestenn Immobilier;34170;CASTELNAU LE LEZ;700;R�sidence Parc Elys�e Route de N�mes;;34057;89777258800017;Agence immobili�re;https://immobilier-castelnau-le-lez.nestenn.com/contact;https://immobilier-castelnau-le-lez.nestenn.com/;3.9287300;43.6365900;True;;;True;;;;;;;;;;;;;;;;;;;;;;;;;;;;;False;True;;;True;;;;;;;;;;;;;;;;;;;;
71;Agence Nestenn Immobilier;83240;CAVALAIRE SUR MER;188; rue du Port;;83036;88206163300013;Agence immobili�re;https://immobilier-cavalaire.nestenn.com/contact;https://immobilier-cavalaire.nestenn.com/;6.5325448;43.1715230;True;;;True;;;;;;;;;;;;;;;;;;;;;;;;;;;;;False;True;;;True;;;;;;;;;;;;;;;;;;;;
72;Agence Nestenn Immobilier;31220;CAZERES;21;Avenue Pasteur;;31135;48206309600028;Agence immobili�re;https://immobilier-cazeres.nestenn.com/contact;https://immobilier-cazeres.nestenn.com/;1.0833116;43.2085158;True;;;True;;;;;;;;;;;;;;;;;;;;;;;;;;;;;False;True;;;True;;;;;;;;;;;;;;;;;;;;
73;Agence Nestenn Immobilier;72330;CERANS FOULLETOURTE;90; rue nationale;;72051;52942747800019;Agence immobili�re;https://immobilier-cerans-foulletourte.nestenn.com/contact;https://immobilier-cerans-foulletourte.nestenn.com/;0.0761918;47.8287340;True;;;True;;;;;;;;;;;;;;;;;;;;;;;;;;;;;False;True;;;True;;;;;;;;;;;;;;;;;;;;
74;Agence Nestenn Immobilier;95800;CERGY;30; Rue des Voyageurs;;95127;52198391600011;Agence immobili�re;https://immobilier-cergy.nestenn.com/contact;https://immobilier-cergy.nestenn.com/;2.0349030;49.0500560;True;;;True;;;;;;;;;;;;;;;;;;;;;;;;;;;;;False;True;;;True;;;;;;;;;;;;;;;;;;;;
75;Agence Nestenn Immobilier;85300;CHALLANS;4;Rue de Nantes;;85047;43367095700029;Agence immobili�re;https://immobilier-challans-beauvoir.nestenn.com/contact;https://immobilier-challans-beauvoir.nestenn.com/;-1.8788610;46.8481090;True;;;True;;;;;;;;;;;;;;;;;;;;;;;;;;;;;False;True;;;True;;;;;;;;;;;;;;;;;;;;
76;Agence Nestenn Immobilier;37170;CHAMBRAY LES TOURS;10;Avenue de la R�publique;;37050;82342947700016;Agence immobili�re;https://immobilier-chambray-les-tours.nestenn.com/contact;https://immobilier-chambray-les-tours.nestenn.com/;0.7042224;47.3472216;True;;;True;;;;;;;;;;;;;;;;;;;;;;;;;;;;;False;True;;;True;;;;;;;;;;;;;;;;;;;;
77;Agence Nestenn Immobilier;69410;CHAMPAGNE AU MONT D'OR;86; Bis Avenue de Lanessan;;69040;84076988900014;Agence immobili�re;https://immobilier-montdor.nestenn.comcontact;https://immobilier-montdor.nestenn.com;4.7905310;45.7987620;True;;;True;;;;;;;;;;;;;;;;;;;;;;;;;;;;;False;True;;;True;;;;;;;;;;;;;;;;;;;;
78;Agence Nestenn Immobilier;35410;CHATEAUGIRON;23; Rue de la Madeleine;;35069;;Agence immobili�re;https://immobilier-chateaugiron.nestenn.com/contact;https://immobilier-chateaugiron.nestenn.com/;-1.5030111;48.0479881;True;;;True;;;;;;;;;;;;;;;;;;;;;;;;;;;;;False;True;;;True;;;;;;;;;;;;;;;;;;;;
79;Agence Nestenn Immobilier;13220;CHATEAUNEUF LES MARTIGUES;28; avenue du 4 septembre;;13026;50055142900029;Agence immobili�re;https://immobilier-chateauneuf-les-martigues.nestenn.com/contact;https://immobilier-chateauneuf-les-martigues.nestenn.com/;5.1625700;43.3836500;True;;;True;;;;;;;;;;;;;;;;;;;;;;;;;;;;;False;True;;;True;;;;;;;;;;;;;;;;;;;;
80;Agence Nestenn Immobilier;02400;CH�TEAU-THIERRY;3;Quai de la Poterne;;2168;45306662300019;Agence immobili�re;https://immobilier-chateau-thierry.nestenn.com/contact;https://immobilier-chateau-thierry.nestenn.com/;3.4049200;49.0444500;True;;;True;;;;;;;;;;;;;;;;;;;;;;;;;;;;;False;True;;;True;;;;;;;;;;;;;;;;;;;;
81;Agence Nestenn Immobilier;60240;CHAUMONT EN VEXIN;12;Rue de l'H�tel de Ville;;60143;44462833300015;Agence immobili�re;https://immobilier-chaumont-en-vexin.nestenn.comcontact;https://immobilier-chaumont-en-vexin.nestenn.com;1.8826373;49.2634431;True;;;True;;;;;;;;;;;;;;;;;;;;;;;;;;;;;False;True;;;True;;;;;;;;;;;;;;;;;;;;
82;Agence Nestenn Immobilier;35310;CHAVAGNE;7; Avenue de la Mairie;;35076;50435222000017;Agence immobili�re;https://immobilier-chavagne.nestenn.com/contact;https://immobilier-chavagne.nestenn.com/;-1.7873967;48.0525514;True;;;True;;;;;;;;;;;;;;;;;;;;;;;;;;;;;False;True;;;True;;;;;;;;;;;;;;;;;;;;
83;Agence Nestenn Immobilier;69380;CHAZAY D'AZERGUES;31;rue des Varennes;;69052;84796700700018;Agence immobili�re;https://immobilier-chazay.nestenn.com/contact;https://immobilier-chazay.nestenn.com/;4.7089560;45.8806550;True;;;True;;;;;;;;;;;;;;;;;;;;;;;;;;;;;False;True;;;True;;;;;;;;;;;;;;;;;;;;
84;Agence Nestenn Immobilier;77700;CHESSY;24; Avenue Herg�;;77111;82496891100035;Agence immobili�re;https://immobilier-chessy.nestenn.com/contact;https://immobilier-chessy.nestenn.com/;2.7730349;48.8580370;True;;;True;;;;;;;;;;;;;;;;;;;;;;;;;;;;;False;True;;;True;;;;;;;;;;;;;;;;;;;;
85;Agence Nestenn Immobilier;37500;CHINON;102; Quai Jeanne d'Arc;;37072;42452363700090;Agence immobili�re;https://immobilier-chinon.nestenn.com/contact;https://immobilier-chinon.nestenn.com/;0.2443775;47.1651935;True;;;True;;;;;;;;;;;;;;;;;;;;;;;;;;;;;False;True;;;True;;;;;;;;;;;;;;;;;;;;
86;Agence Nestenn Immobilier;60750;CHOISY AU BAC;3; rue du Mar�chal Foch ;;60151;51997946200032;Agence immobili�re;https://immobilier-choisy-au-bac.nestenn.com/contact;https://immobilier-choisy-au-bac.nestenn.com/;2.8767400;49.4367690;True;;;True;;;;;;;;;;;;;;;;;;;;;;;;;;;;;False;True;;;True;;;;;;;;;;;;;;;;;;;;
87;Agence Nestenn Immobilier;92110;CLICHY;114; Bd Jean Jaur�s;;92024;89853588500013;Agence immobili�re;https://immobilier-clichy.nestenn.com/contact;https://immobilier-clichy.nestenn.com/;2.3024000;48.9050000;True;;;True;;;;;;;;;;;;;;;;;;;;;;;;;;;;;False;True;;;True;;;;;;;;;;;;;;;;;;;;
88;Agence Nestenn Immobilier;49300;CHOLET;19;Rue des Bons Enfants;;49099;39441185400018;Agence immobili�re;https://immobilier-cholet.nestenn.com/contact;https://immobilier-cholet.nestenn.com/;-0.8774175;47.0629438;True;;;True;;;;;;;;;;;;;;;;;;;;;;;;;;;;;False;True;;;True;;;;;;;;;;;;;;;;;;;;
89;Agence Nestenn Immobilier;31770;COLOMIERS;2; Place du Lioran;;31149;49177690200018;Agence immobili�re;https://immobilier-colomiers.nestenn.com/contact;https://immobilier-colomiers.nestenn.com/;1.3331330;43.6108554;True;;;True;;;;;;;;;;;;;;;;;;;;;;;;;;;;;False;True;;;True;;;;;;;;;;;;;;;;;;;;
90;Agence Nestenn Immobilier;35270;COMBOURG;7;Place Albert Parent;;35085;84370606000012;Agence immobili�re;https://immobilier-combourg.nestenn.com/contact;https://immobilier-combourg.nestenn.com/;-1.7540577;48.4087000;True;;;True;;;;;;;;;;;;;;;;;;;;;;;;;;;;;False;True;;;True;;;;;;;;;;;;;;;;;;;;
91;Agence Nestenn Immobilier;60200;COMPIEGNE;12; Rue Magenta;;60159;88498188700018;Agence immobili�re;https://immobilier-compiegne.nestenn.com/contact;https://immobilier-compiegne.nestenn.com/;2.8262758;49.4164780;True;;;True;;;;;;;;;;;;;;;;;;;;;;;;;;;;;False;True;;;True;;;;;;;;;;;;;;;;;;;;
92;Agence Nestenn Immobilier;29900;CONCARNEAU;21;Rue pierre Gueguin;;29039;85011123800018;Agence immobili�re;https://immobilier-concarneau.nestenn.com/contact;https://immobilier-concarneau.nestenn.com/;-3.9208417;47.8740317;True;;;True;;;;;;;;;;;;;;;;;;;;;;;;;;;;;False;True;;;True;;;;;;;;;;;;;;;;;;;;
93;Agence Nestenn Immobilier;32100;CONDOM;;Avenue des Anciens Combattants AFN et TOE;;32107;87870102800010;Agence immobili�re;https://immobilier-condom.nestenn.com/contact;https://immobilier-condom.nestenn.com/;0.3724920;43.9582230;True;;;True;;;;;;;;;;;;;;;;;;;;;;;;;;;;;False;True;;;True;;;;;;;;;;;;;;;;;;;;
94;Agence Nestenn Immobilier;91830;COUDRAY MONTCEAUX;;"Ponthierry
Centre cial les Terrasses
Avenue General de Gaulle";;91179;83355257300010;Agence immobili�re;https://immobilier-coudray-montceaux.nestenn.com/contact;https://immobilier-coudray-montceaux.nestenn.com/;2.4860660;48.5669390;True;;;True;;;;;;;;;;;;;;;;;;;;;;;;;;;;;False;True;;;True;;;;;;;;;;;;;;;;;;;;
95;Agence Nestenn Immobilier;92400;COURBEVOIE;2;Rue de Colombes;;92026;52276592400017;Agence immobili�re;https://immobilier-courbevoie.nestenn.com/contact;https://immobilier-courbevoie.nestenn.com/;2.2565000;48.8968400;True;;;True;;;;;;;;;;;;;;;;;;;;;;;;;;;;;False;True;;;True;;;;;;;;;;;;;;;;;;;;
96;Agence Nestenn Immobilier;69290;CRAPONNE;46; Avenue Edouard Millaud;;69069;82433802400022;Agence immobili�re;https://immobilier-craponne.nestenn.com/contact;https://immobilier-craponne.nestenn.com/;4.7319531;45.7472148;True;;;True;;;;;;;;;;;;;;;;;;;;;;;;;;;;;False;True;;;True;;;;;;;;;;;;;;;;;;;;
97;Agence Nestenn Immobilier;71680;CRECHES SUR SAONE;777; Route N6;;71150;84155154200019;Agence immobili�re;https://immobilier-creches-sur-saone.nestenn.com/contact;https://immobilier-creches-sur-saone.nestenn.com/;4.7876760;46.2437120;True;;;True;;;;;;;;;;;;;;;;;;;;;;;;;;;;;False;True;;;True;;;;;;;;;;;;;;;;;;;;
98;Agence Nestenn Immobilier;38460;CREMIEU;16; Grande Rue de la Halle;;38138;48744877100013;Agence immobili�re;https://immobilier-cremieu.nestenn.com/contact;https://immobilier-cremieu.nestenn.com/;5.2533750;45.7248200;True;;;True;;;;;;;;;;;;;;;;;;;;;;;;;;;;;False;True;;;True;;;;;;;;;;;;;;;;;;;;
99;Agence Nestenn Immobilier;62780;CUCQ;325;Centre cial Casamanche Avenue de l'Europe;;62826;90147605100015;Agence immobili�re;https://immobilier-cucq.nestenn.com/contact;https://immobilier-cucq.nestenn.com/;1.6264400;50.5092100;;;;;;;;;;;;;;;;;;;;;;;;;;;;;;;;;;;;;;;;;;;;;;;;;;;;;;;;;
100;Agence Nestenn Immobilier;84160;CUCURON;;Place de l'Etang;;84042;45240605100030;Agence immobili�re;https://immobilier-sud-luberon.nestenn.com/contact;https://immobilier-sud-luberon.nestenn.com/;5.4384640;43.7733420;;;;;;;;;;;;;;;;;;;;;;;;;;;;;;;;;;;;;;;;;;;;;;;;;;;;;;;;;
101;Agence Nestenn Immobilier;40100;DAX;17; cours Verdun;;40088;82315871200013;Agence immobili�re;https://immobilier-dax.nestenn.comcontact;https://immobilier-dax.nestenn.com;-1.0566778;43.7107393;;;;;;;;;;;;;;;;;;;;;;;;;;;;;;;;;;;;;;;;;;;;;;;;;;;;;;;;;
102;Agence Nestenn Immobilier;22100;DINAN;12;bis rue des Rouairies;;22050;78864130600022;Agence immobili�re;https://immobilier-dinan.nestenn.com/contact;https://immobilier-dinan.nestenn.com/;-2.0673030;48.4552972;;;;;;;;;;;;;;;;;;;;;;;;;;;;;;;;;;;;;;;;;;;;;;;;;;;;;;;;;
103;Agence Nestenn Immobilier;95330;DOMONT;25;Avenue Jean Jaur�s;;95199;34936318400012;Agence immobili�re;https://immobilier-domont.nestenn.com/contact;https://immobilier-domont.nestenn.com/;2.3195628;49.0332097;;;;;;;;;;;;;;;;;;;;;;;;;;;;;;;;;;;;;;;;;;;;;;;;;;;;;;;;;
104;Agence Nestenn Immobilier;85170;DOMPIERRE SUR YON;32; rue du Vieux Bourg;;85081;49794325800028;Agence immobili�re;https://immobilier-lepoiresurvie.nestenn.com/contact;https://immobilier-lepoiresurvie.nestenn.com/;-1.3846750;46.7384590;;;;;;;;;;;;;;;;;;;;;;;;;;;;;;;;;;;;;;;;;;;;;;;;;;;;;;;;;
105;Agence Nestenn Immobilier;49700;DOUE LA FONTAINE;10;Place Verdun;;49125;43336341300017;Agence immobili�re;https://immobilier-doue-la-fontaine.nestenn.com/contact;https://immobilier-doue-la-fontaine.nestenn.com/;-0.2740300;47.1936700;;;;;;;;;;;;;;;;;;;;;;;;;;;;;;;;;;;;;;;;;;;;;;;;;;;;;;;;;
106;Agence Nestenn Immobilier;83300;DRAGUIGNAN;237; avenue du G�n�ral de Gaulle;;83050;49945657200019;Agence immobili�re;https://immobilier-draguignan.nestenn.com/contact;https://immobilier-draguignan.nestenn.com/;6.4720400;43.5279800;;;;;;;;;;;;;;;;;;;;;;;;;;;;;;;;;;;;;;;;;;;;;;;;;;;;;;;;;
107;Agence Nestenn Immobilier;95600;EAUBONNE;48;Avenue de Paris;;95203;48766983000027;Agence immobili�re;https://immobilier-eaubonne.nestenn.com/contact;https://immobilier-eaubonne.nestenn.com/;2.2864120;48.9918084;;;;;;;;;;;;;;;;;;;;;;;;;;;;;;;;;;;;;;;;;;;;;;;;;;;;;;;;;
108;Agence Nestenn Immobilier;38130;ECHIROLLES;14;Rue Albert Londres;;38151;49140206100015;Agence immobili�re;https://immobilier-echirolles.nestenn.com/contact;https://immobilier-echirolles.nestenn.com/;5.7199100;45.1476100;;;;;;;;;;;;;;;;;;;;;;;;;;;;;;;;;;;;;;;;;;;;;;;;;;;;;;;;;
109;Agence Nestenn Immobilier;69130;ECULLY;29; Avenue Raymond de Veyssi�re;;69081;87858570200011;Agence immobili�re;https://immobilier-ecully.nestenn.com/contact;https://immobilier-ecully.nestenn.com/;4.7814100;45.7738800;;;;;;;;;;;;;;;;;;;;;;;;;;;;;;;;;;;;;;;;;;;;;;;;;;;;;;;;;
110;Agence Nestenn Immobilier;56250;ELVEN;8; Rue de la Passion;;56053;53297636200014;Agence immobili�re;https://immobilier-elven.nestenn.com/contact;https://immobilier-elven.nestenn.com/;-2.5916301;47.7302243;;;;;;;;;;;;;;;;;;;;;;;;;;;;;;;;;;;;;;;;;;;;;;;;;;;;;;;;;
111;Agence Nestenn Immobilier;28230;EPERNON;9;Rue du Malconseil;;28140;49808901000017;Agence immobili�re;https://immobilier-epernon.nestenn.com/contact;https://immobilier-epernon.nestenn.com/;1.6790600;48.6089100;;;;;;;;;;;;;;;;;;;;;;;;;;;;;;;;;;;;;;;;;;;;;;;;;;;;;;;;;
112;Agence Nestenn Immobilier;93800;EPINAY SUR SEINE;42-46; Avenue Galli�ni;;93031;44482305800011;Agence immobili�re;https://immobilier-epinay-sur-seine.nestenn.comcontact;https://immobilier-epinay-sur-seine.nestenn.com;2.2979122;48.9636915;;;;;;;;;;;;;;;;;;;;;;;;;;;;;;;;;;;;;;;;;;;;;;;;;;;;;;;;;
113;Agence Nestenn Immobilier;95120;ERMONT;8;bis rue de Stalingrad;;95219;81271044000015;Agence immobili�re;https://immobilier-ermont.nestenn.com/contact;https://immobilier-ermont.nestenn.com/;2.2583000;48.9887000;;;;;;;;;;;;;;;;;;;;;;;;;;;;;;;;;;;;;;;;;;;;;;;;;;;;;;;;;
114;Agence Nestenn Immobilier;91150;ETAMPES;72; rue Louis Moreau;;91223;42302430600015;Agence immobili�re;https://immobilier-etampes.nestenn.com/contact;https://immobilier-etampes.nestenn.com/;2.1576610;48.4347330;;;;;;;;;;;;;;;;;;;;;;;;;;;;;;;;;;;;;;;;;;;;;;;;;;;;;;;;;
115;Agence Nestenn Immobilier;74500;EVIAN LES BAINS;1;Rue de la monnaie;;74119;39195128200030;Agence immobili�re;https://immobilier-evian-les-bains.nestenn.com/contact;https://immobilier-evian-les-bains.nestenn.com/;6.5872210;46.4003590;;;;;;;;;;;;;;;;;;;;;;;;;;;;;;;;;;;;;;;;;;;;;;;;;;;;;;;;;
116;Agence Nestenn Immobilier;24160;EXCIDEUIL;;ZAC Le Maine;;24164;89938440800014;Agence immobili�re;https://immobilier-excideuil.nestenn.com/contact;https://immobilier-excideuil.nestenn.com/;1.0436000;45.3301000;;;;;;;;;;;;;;;;;;;;;;;;;;;;;;;;;;;;;;;;;;;;;;;;;;;;;;;;;
117;Agence Nestenn Immobilier;31150;FENOUILLET;1;Avenue des Sports;;31182;48386645500023;Agence immobili�re;https://immobilier-fenouillet.nestenn.com/contact;https://immobilier-fenouillet.nestenn.com/;1.3929000;43.6781000;;;;;;;;;;;;;;;;;;;;;;;;;;;;;;;;;;;;;;;;;;;;;;;;;;;;;;;;;
118;Agence Nestenn Immobilier;9000;FOIX;26; Avenue du G�n�ral Leclerc;;9122;81479175200011;Agence immobili�re;https://immobilier-foix.nestenn.com/contact;https://immobilier-foix.nestenn.com/;1.6079200;42.9741900;;;;;;;;;;;;;;;;;;;;;;;;;;;;;;;;;;;;;;;;;;;;;;;;;;;;;;;;;
119;Agence Nestenn Immobilier;85200;FONTENAY LE COMTE;94; Avenue du Pr�sident Mitterrand;;85092;81804833200014;Agence immobili�re;https://immobilier-fontenay-le-comte.nestenn.com/contact;https://immobilier-fontenay-le-comte.nestenn.com/;-0.8079700;46.4518080;;;;;;;;;;;;;;;;;;;;;;;;;;;;;;;;;;;;;;;;;;;;;;;;;;;;;;;;;
120;Agence Nestenn Immobilier;95470;FOSSES;2;Avenue Henri Barbusse;;95250;48009023200038;Agence immobili�re;https://immobilier-fosses.nestenn.comcontact;https://immobilier-fosses.nestenn.com;2.5233473;49.0996541;;;;;;;;;;;;;;;;;;;;;;;;;;;;;;;;;;;;;;;;;;;;;;;;;;;;;;;;;
121;Agence Nestenn Immobilier;69340;FRANCHEVILLE;22;B Avenue de la Table de Pierre;;69089;81274842400015;Agence immobili�re;https://immobilier-francheville.nestenn.comcontact;https://immobilier-francheville.nestenn.com;4.7566100;45.7473700;;;;;;;;;;;;;;;;;;;;;;;;;;;;;;;;;;;;;;;;;;;;;;;;;;;;;;;;;
122;Agence Nestenn Immobilier;95130;FRANCONVILLE;86; Rue du G�n�ral Leclerc;;95252;79843653100015;Agence immobili�re;https://immobilier-franconville.nestenn.comcontact;https://immobilier-franconville.nestenn.com;2.2293801;48.9835047;;;;;;;;;;;;;;;;;;;;;;;;;;;;;;;;;;;;;;;;;;;;;;;;;;;;;;;;;
123;Agence Nestenn Immobilier;83600;FREJUS;254;avenue de Port Fr�jus;;83061;79258961600012;Agence immobili�re;https://immobilier-frejus.nestenn.com/contact;https://immobilier-frejus.nestenn.com/;6.7501000;43.4225700;;;;;;;;;;;;;;;;;;;;;;;;;;;;;;;;;;;;;;;;;;;;;;;;;;;;;;;;;
124;Agence Nestenn Immobilier;34110;FRONTIGNAN;139;"Avenue Vauban
Port Frontignan";;34108;40520719200056;Agence immobili�re;https://immobilier-frontignan.nestenn.com/contact;https://immobilier-frontignan.nestenn.com/;3.7716213;43.4328860;;;;;;;;;;;;;;;;;;;;;;;;;;;;;;;;;;;;;;;;;;;;;;;;;;;;;;;;;
125;Agence Nestenn Immobilier;13120;GARDANNE;6;Place de Gueydan;;13041;52042054800015;Agence immobili�re;https://immobilier-gardanne.nestenn.comcontact;https://immobilier-gardanne.nestenn.com;5.4677033;43.4546881;;;;;;;;;;;;;;;;;;;;;;;;;;;;;;;;;;;;;;;;;;;;;;;;;;;;;;;;;
126;Agence Nestenn Immobilier;83136;GAREOULT;;"Route de Brignoles
Centre Cial les Clappiers Longs";;83064;80264522600019;Agence immobili�re;https://immobilier-gareoult.nestenn.com/contact;https://immobilier-gareoult.nestenn.com/;6.0565690;43.3316190;;;;;;;;;;;;;;;;;;;;;;;;;;;;;;;;;;;;;;;;;;;;;;;;;;;;;;;;;
127;Agence Nestenn Immobilier;69740;GENAS;5;Rue de la r�publique;;69277;51400963800024;Agence immobili�re;https://immobilier-genas.nestenn.comcontact;https://immobilier-genas.nestenn.com;4.9977760;45.7322620;;;;;;;;;;;;;;;;;;;;;;;;;;;;;;;;;;;;;;;;;;;;;;;;;;;;;;;;;
128;Agence Nestenn Immobilier;30510;"GRAND BAIE
ILE MAURICE";;"Waterside,
Royal Road
B13, GRAND BAIE";;0;;Agence immobili�re;https://immobilier-grand-baie.nestenn.com/contact;https://immobilier-grand-baie.nestenn.com/;57.5800170;-20.0160750;;;;;;;;;;;;;;;;;;;;;;;;;;;;;;;;;;;;;;;;;;;;;;;;;;;;;;;;;
129;Agence Nestenn Immobilier;56390;GRAND-CHAMP;9;Place de la Mairie;;56067;45237958900032;Agence immobili�re;https://immobilier-grandchamp.nestenn.com/contact;https://immobilier-grandchamp.nestenn.com/;-2.8441853;47.7575130;;;;;;;;;;;;;;;;;;;;;;;;;;;;;;;;;;;;;;;;;;;;;;;;;;;;;;;;;
130;Agence Nestenn Immobilier;38000;GRENOBLE;131;avenue Jean Perrot;;38185;49365974200016;Agence immobili�re;https://jean-perrot-immobilier-grenoble.nestenn.comcontact;https://jean-perrot-immobilier-grenoble.nestenn.com;5.7404520;45.1699430;;;;;;;;;;;;;;;;;;;;;;;;;;;;;;;;;;;;;;;;;;;;;;;;;;;;;;;;;
131;Agence Nestenn Immobilier;2190;"GUIGNICOURT
VILLENEUVE SUR AISNE";14;rue Ehrard de Nazelle;;2360;81916060700019;Agence immobili�re;https://immobilier-guignicourt.nestenn.com/contact;https://immobilier-guignicourt.nestenn.com/;3.9666015;49.4348116;;;;;;;;;;;;;;;;;;;;;;;;;;;;;;;;;;;;;;;;;;;;;;;;;;;;;;;;;
132;Agence Nestenn Immobilier;95220;HERBLAY;3; Rue de Paris;;95306;53267104700027;Agence immobili�re;https://immobilier-herblay.nestenn.comcontact;https://immobilier-herblay.nestenn.com;2.1676510;48.9911990;;;;;;;;;;;;;;;;;;;;;;;;;;;;;;;;;;;;;;;;;;;;;;;;;;;;;;;;;
133;Agence Nestenn Immobilier;44810;HERIC;51;Centre Cial Super U Rue de l'Ocean;;44073;80787512500013;Agence immobili�re;https://immobilier-heric.nestenn.com/contact;https://immobilier-heric.nestenn.com/;-1.6613659;47.4141647;;;;;;;;;;;;;;;;;;;;;;;;;;;;;;;;;;;;;;;;;;;;;;;;;;;;;;;;;
134;Agence Nestenn Immobilier;38540;HEYRIEUX;12; Avenue de la R�publique;;38189;81806698700012;Agence immobili�re;https://immobilier-heyrieux.nestenn.comcontact;https://immobilier-heyrieux.nestenn.com;5.0637920;45.6297110;;;;;;;;;;;;;;;;;;;;;;;;;;;;;;;;;;;;;;;;;;;;;;;;;;;;;;;;;
135;Agence Nestenn Immobilier;78800;HOUILLES;11; Rue Gabriel P�ri;;78311;50216819800013;Agence immobili�re;https://immobilier-houilles.nestenn.com/contact;https://immobilier-houilles.nestenn.com/;2.1881005;48.9250732;;;;;;;;;;;;;;;;;;;;;;;;;;;;;;;;;;;;;;;;;;;;;;;;;;;;;;;;;
136;Agence Nestenn Immobilier;83400;HYERES;51;Avenue Gambetta;;83069;81928372200026;Agence immobili�re;https://immobilier-hyeres.nestenn.com/contact;https://immobilier-hyeres.nestenn.com/;6.1288160;43.1158880;;;;;;;;;;;;;;;;;;;;;;;;;;;;;;;;;;;;;;;;;;;;;;;;;;;;;;;;;
137;Agence Nestenn Immobilier;67400;ILLKIRCH GRAFFENSTADEN;25;Rue Vincent Scotto;;67218;53982252800029;Agence immobili�re;https://immobilier-illkirch.nestenn.com/contact;https://immobilier-illkirch.nestenn.com/;7.7199903;48.5333000;;;;;;;;;;;;;;;;;;;;;;;;;;;;;;;;;;;;;;;;;;;;;;;;;;;;;;;;;
138;Agence Nestenn Immobilier;92130;ISSY LES MOULINEAUX;60; Avenue Victor Cresson;;92040;48766983000027;Agence immobili�re;https://immobilier-issy.nestenn.com/contact;https://immobilier-issy.nestenn.com/;2.2659367;48.8222075;;;;;;;;;;;;;;;;;;;;;;;;;;;;;;;;;;;;;;;;;;;;;;;;;;;;;;;;;
139;Agence Nestenn Immobilier;13800;ISTRES;10;Boulevard Jean Marie L'huillier;;13047;89227201400010;Agence immobili�re;https://immobilier-istres.nestenn.com/contact;https://immobilier-istres.nestenn.com/;4.9852000;43.5123000;;;;;;;;;;;;;;;;;;;;;;;;;;;;;;;;;;;;;;;;;;;;;;;;;;;;;;;;;
140;Agence Nestenn Immobilier;91760;ITTEVILLE;2;Place Charles de Gaulle;;91315;84899680700014;Agence immobili�re;https://immobilier-itteville.nestenn.com/contact;https://immobilier-itteville.nestenn.com/;2.3408778;48.5145510;;;;;;;;;;;;;;;;;;;;;;;;;;;;;;;;;;;;;;;;;;;;;;;;;;;;;;;;;
141;Agence Nestenn Immobilier;94200;IVRY SUR SEINE;66; Bis Avenue Maurice Thorez;;94041;49791535500018;Agence immobili�re;https://immobilier-ivry-sur-seine.nestenn.com/contact;https://immobilier-ivry-sur-seine.nestenn.com/;2.3771000;48.8158700;;;;;;;;;;;;;;;;;;;;;;;;;;;;;;;;;;;;;;;;;;;;;;;;;;;;;;;;;
142;Agence Nestenn Immobilier;37300;JOUE LES TOURS;16; Rue Gamard;;37122;81035937200024;Agence immobili�re;https://immobilier-joue-les-tours.nestenn.com/contact;https://immobilier-joue-les-tours.nestenn.com/;0.6613237;47.3516224;;;;;;;;;;;;;;;;;;;;;;;;;;;;;;;;;;;;;;;;;;;;;;;;;;;;;;;;;
143;Agence Nestenn Immobilier;44240;LA CHAPELLE SUR ERDRE;12;A Rue Herv� le Guyader;;44035;80787512500013;Agence immobili�re;https://immobilier-lachapellesurerdre.nestenn.com/contact;https://immobilier-lachapellesurerdre.nestenn.com/;-1.5521000;47.3005000;;;;;;;;;;;;;;;;;;;;;;;;;;;;;;;;;;;;;;;;;;;;;;;;;;;;;;;;;
144;Agence Nestenn Immobilier;13600;LA CIOTAT;33; Chemin du Puit de Brunet;;13028;79858912300024;Agence immobili�re;https://immobilier-la-ciotat.nestenn.com/contact;https://immobilier-la-ciotat.nestenn.com/;5.5999300;43.1863690;;;;;;;;;;;;;;;;;;;;;;;;;;;;;;;;;;;;;;;;;;;;;;;;;;;;;;;;;
145;Agence Nestenn Immobilier;83260;LA CRAU;100; Avenue de Toulon;;83047;81928372200018;Agence immobili�re;https://immobilier-la-crau.nestenn.com/contact;https://immobilier-la-crau.nestenn.com/;6.0654820;43.1450970;;;;;;;;;;;;;;;;;;;;;;;;;;;;;;;;;;;;;;;;;;;;;;;;;;;;;;;;;
146;Agence Nestenn Immobilier;72200;LA FLECHE;43; Grande Rue;;72154;52942747800019;Agence immobili�re;https://immobilier-lafleche.nestenn.com/contact;https://immobilier-lafleche.nestenn.com/;-0.0734519;47.6996046;;;;;;;;;;;;;;;;;;;;;;;;;;;;;;;;;;;;;;;;;;;;;;;;;;;;;;;;;
147;Agence Nestenn Immobilier;83130;LA GARDE;245; Avenue Sadi Carnot;;83062;83341072300013;Agence immobili�re;https://immobilier-la-garde.nestenn.com/contact;https://immobilier-la-garde.nestenn.com/;6.0046583;43.1239916;;;;;;;;;;;;;;;;;;;;;;;;;;;;;;;;;;;;;;;;;;;;;;;;;;;;;;;;;
148;Agence Nestenn Immobilier;73290;LA MOTTE SERVOLEX;105; Rue des Allobroges;;73179;;Agence immobili�re;https://immobilier-la-motte-servolex.nestenn.com/contact;https://immobilier-la-motte-servolex.nestenn.com/;5.8762588;45.5970740;;;;;;;;;;;;;;;;;;;;;;;;;;;;;;;;;;;;;;;;;;;;;;;;;;;;;;;;;
149;Agence Nestenn Immobilier;85000;LA ROCHE SUR YON;34;Rue du Pr�sident de Gaulle;;85191;49794325800028;Agence immobili�re;https://immobilier-larochesuryon.nestenn.com/contact;https://immobilier-larochesuryon.nestenn.com/;-1.4239211;46.6712602;;;;;;;;;;;;;;;;;;;;;;;;;;;;;;;;;;;;;;;;;;;;;;;;;;;;;;;;;
150;Agence Nestenn Immobilier;17000;LA ROCHELLE CENTRE;32;Rue Thiers;;17300;85138356200010;Agence immobili�re;https://immobilier-la-rochelle.nestenn.com/contact;https://immobilier-la-rochelle.nestenn.com/;-1.1497358;46.1611700;;;;;;;;;;;;;;;;;;;;;;;;;;;;;;;;;;;;;;;;;;;;;;;;;;;;;;;;;
151;Agence Nestenn Immobilier;83500;LA SEYNE SUR MER;83;" rue Pierre Loti
Immeuble le Yachting";;83126;81293568200011;Agence immobili�re;https://immobilier-la-seyne-sur-mer.nestenn.com/contact;https://immobilier-la-seyne-sur-mer.nestenn.com/;5.8835300;43.0996400;;;;;;;;;;;;;;;;;;;;;;;;;;;;;;;;;;;;;;;;;;;;;;;;;;;;;;;;;
152;Agence Nestenn Immobilier;33260;"LA TESTE DE BUCH
ARCACHON";3;rue victor hugo ;;33529;87955724700019;Agence immobili�re;https://immobilier-arcachon.nestenn.com/contact;https://immobilier-arcachon.nestenn.com/;-1.1482240;44.6310770;;;;;;;;;;;;;;;;;;;;;;;;;;;;;;;;;;;;;;;;;;;;;;;;;;;;;;;;;
153;Agence Nestenn Immobilier;17390;LA TREMBLADE;4;Ter Boulevard Pasteur;;17452;89365900300014;Agence immobili�re;https://immobilier-la-tremblade.nestenn.com/contact;https://immobilier-la-tremblade.nestenn.com/;-1.1412600;45.7685500;;;;;;;;;;;;;;;;;;;;;;;;;;;;;;;;;;;;;;;;;;;;;;;;;;;;;;;;;
154;Agence Nestenn Immobilier;83160;LA VALETTE DU VAR;44;Avenue Paul Val�ry  R�sidence C�t� Verger;;83144;52846802800014;Agence immobili�re;https://immobilier-la-valette-du-var.nestenn.com/contact;https://immobilier-la-valette-du-var.nestenn.com/;5.9908529;43.1302563;;;;;;;;;;;;;;;;;;;;;;;;;;;;;;;;;;;;;;;;;;;;;;;;;;;;;;;;;
155;Agence Nestenn Immobilier;85460;L'AIGUILLON SUR MER;55;C Avenue Amiral Courbet;;85001;50147508100029;Agence immobili�re;https://immobilier-lucon.nestenn.com/contact;https://immobilier-lucon.nestenn.com/;-1.1665472;46.4558415;;;;;;;;;;;;;;;;;;;;;;;;;;;;;;;;;;;;;;;;;;;;;;;;;;;;;;;;;
156;Agence Nestenn Immobilier;22400;LAMBALLE;12;Rue Villedeneu;;22093;48164081100016;Agence immobili�re;https://immobilier-lamballe.nestenn.com/contact;https://immobilier-lamballe.nestenn.com/;-2.5162805;48.4696199;;;;;;;;;;;;;;;;;;;;;;;;;;;;;;;;;;;;;;;;;;;;;;;;;;;;;;;;;
157;Agence Nestenn Immobilier;60260;LAMORLAYE;43;Rue Michel Bl�r�;;60346;47941476500012;Agence immobili�re;https://immobilier-lamorlaye.nestenn.com/contact;https://immobilier-lamorlaye.nestenn.com/;2.4210900;49.1625867;;;;;;;;;;;;;;;;;;;;;;;;;;;;;;;;;;;;;;;;;;;;;;;;;;;;;;;;;
158;Agence Nestenn Immobilier;02000;LAON SUD;1; Place Victor Hugo;;2408;50899899400018;Agence immobili�re;https://immobilier-laon.nestenn.com/contact;https://immobilier-laon.nestenn.com/;3.6190700;49.5647000;;;;;;;;;;;;;;;;;;;;;;;;;;;;;;;;;;;;;;;;;;;;;;;;;;;;;;;;;
159;Agence Nestenn Immobilier;34970;LATTES;;"Rond Point de l'Europe
Arcades Jacques C�ur";;34129;89512693600015;Agence immobili�re;https://immobilier-lattes.nestenn.com/contact;https://immobilier-lattes.nestenn.com/;3.9058000;43.5718000;;;;;;;;;;;;;;;;;;;;;;;;;;;;;;;;;;;;;;;;;;;;;;;;;;;;;;;;;
160;Agence Nestenn Immobilier;9300;LAVELANET;53; Avenue Lorraine;;9160;81479175200011;Agence immobili�re;https://immobilier-lavelanet.nestenn.com/contact;https://immobilier-lavelanet.nestenn.com/;1.8533150;42.9416339;;;;;;;;;;;;;;;;;;;;;;;;;;;;;;;;;;;;;;;;;;;;;;;;;;;;;;;;;
161;Agence Nestenn Immobilier;30240;LE GRAU DU ROI;38;Rue de l'Aurore;;30133;75295728200029;Agence immobili�re;https://marina-port-camargue.nestenn.com/contact;https://marina-port-camargue.nestenn.com/;4.1357043;43.5346850;;;;;;;;;;;;;;;;;;;;;;;;;;;;;;;;;;;;;;;;;;;;;;;;;;;;;;;;;
162;Agence Nestenn Immobilier;83980;LE LAVANDOU;;"Immeuble le Diamant
Square de Kronberg";;83070;81293568200011;Agence immobili�re;https://immobilier-le-lavandou.nestenn.com/contact;https://immobilier-le-lavandou.nestenn.com/;6.4127000;43.1509000;;;;;;;;;;;;;;;;;;;;;;;;;;;;;;;;;;;;;;;;;;;;;;;;;;;;;;;;;
163;Agence Nestenn Immobilier;49220;LE LION D'ANGERS;3;Rue du G�n�ral Leclerc;;49176;89349438500014;Agence immobili�re;https://immobilier-lelion-angers.nestenn.com/contact;https://immobilier-lelion-angers.nestenn.com/;-0.7130380;47.6271030;;;;;;;;;;;;;;;;;;;;;;;;;;;;;;;;;;;;;;;;;;;;;;;;;;;;;;;;;
164;Agence Nestenn Immobilier;44430;LE LOROUX BOTTEREAU;4;Place Rosmadec;;44084;48520990200025;Agence immobili�re;https://immobilier-le-loroux-bottereau.nestenn.com/contact;https://immobilier-le-loroux-bottereau.nestenn.com/;-1.3490800;47.2371000;;;;;;;;;;;;;;;;;;;;;;;;;;;;;;;;;;;;;;;;;;;;;;;;;;;;;;;;;
165;Agence Nestenn Immobilier;72000;LE MANS NORD;59; Boulevard Georges M�li�s;;72181;41795789100035;Agence immobili�re;https://immobilier-le-mans-nord.nestenn.com/contact;https://immobilier-le-mans-nord.nestenn.com/;0.1607400;48.0144700;;;;;;;;;;;;;;;;;;;;;;;;;;;;;;;;;;;;;;;;;;;;;;;;;;;;;;;;;
166;Agence Nestenn Immobilier;94170;LE PERREUX SUR MARNE;244; avenue Pierre Brossolette;;94058;48793897900027;Agence immobili�re;https://immobilier-le-perreux-sur-marne.nestenn.com/contact;https://immobilier-le-perreux-sur-marne.nestenn.com/;2.5140000;48.8344000;;;;;;;;;;;;;;;;;;;;;;;;;;;;;;;;;;;;;;;;;;;;;;;;;;;;;;;;;
167;Agence Nestenn Immobilier;85170;LE POIRE SUR VIE;1; rue de l'Ancien Prieur�;;85178;49794325800028;Agence immobili�re;https://immobilier-lepoiresurvie.nestenn.com/contact;https://immobilier-lepoiresurvie.nestenn.com/;-1.5055561;46.7666468;;;;;;;;;;;;;;;;;;;;;;;;;;;;;;;;;;;;;;;;;;;;;;;;;;;;;;;;;
168;Agence Nestenn Immobilier;73330;LE PONT DE BEAUVOISIN;333;"A rue Emmanuel Cretet
Zone la Baronnie";;73204;50385654400013;Agence immobili�re;https://immobilier-pont-de-beauvoisin.nestenn.com/contact;https://immobilier-pont-de-beauvoisin.nestenn.com/;5.6875955;45.5299298;;;;;;;;;;;;;;;;;;;;;;;;;;;;;;;;;;;;;;;;;;;;;;;;;;;;;;;;;
169;Agence Nestenn Immobilier;83320 ;LE PRADET;4; Rue Joseph Lantrua;;83098;41221951100059;Agence immobili�re;https://immobilier-le-pradet.nestenn.com/contact;https://immobilier-le-pradet.nestenn.com/;6.0218000;43.1064500;;;;;;;;;;;;;;;;;;;;;;;;;;;;;;;;;;;;;;;;;;;;;;;;;;;;;;;;;
170;Agence Nestenn Immobilier;93310;LE PRE SAINT GERVAIS;70; Rue Andr� Joineau;;93061;53080282600012;Agence immobili�re;https://immobilier-le-pre-saint-gervais.nestenn.com/contact;https://immobilier-le-pre-saint-gervais.nestenn.com/;2.4042800;48.8842100;;;;;;;;;;;;;;;;;;;;;;;;;;;;;;;;;;;;;;;;;;;;;;;;;;;;;;;;;
171;Agence Nestenn Immobilier;06650;LE ROURET;104;Route de Nice ;;6112;90105635800012;Agence immobili�re;https://immobilier-le-rouret.nestenn.com/contact;https://immobilier-le-rouret.nestenn.com/;7.0188200;43.6761400;;;;;;;;;;;;;;;;;;;;;;;;;;;;;;;;;;;;;;;;;;;;;;;;;;;;;;;;;
172;Agence Nestenn Immobilier;49130;LES PONTS DE CE;12;Rue Charles de Gaulle;;49246;52149142300013;Agence immobili�re;https://immobilier-lespontsdece.nestenn.comcontact;https://immobilier-lespontsdece.nestenn.com;-0.5248541;47.4243487;;;;;;;;;;;;;;;;;;;;;;;;;;;;;;;;;;;;;;;;;;;;;;;;;;;;;;;;;
173;Agence Nestenn Immobilier;85100;LES SABLES D'OLONNE;15;bis Boulevard Arago;;85194;49086564900027;Agence immobili�re;https://immobilier-lessablesdolonne.nestenn.com/contact;https://immobilier-lessablesdolonne.nestenn.com/;-1.7733920;46.4943024;;;;;;;;;;;;;;;;;;;;;;;;;;;;;;;;;;;;;;;;;;;;;;;;;;;;;;;;;
174;Agence Nestenn Immobilier;91310;LEUVILLE SUR ORGE;3;Centre Cial AuchanRue du 08 Mai 1945;;91333;51359600700015;Agence immobili�re;https://immobilier-leuville-sur-orge.nestenn.com/contact;https://immobilier-leuville-sur-orge.nestenn.com/;2.2673500;48.6232600;;;;;;;;;;;;;;;;;;;;;;;;;;;;;;;;;;;;;;;;;;;;;;;;;;;;;;;;;
175;Agence Nestenn Immobilier;67380;LINGOLSHEIM;28;A Rue du Mar�chal Foch;;67267;53982252800029;Agence immobili�re;https://immobilier-lingolsheim.nestenn.com/contact;https://immobilier-lingolsheim.nestenn.com/;7.6894400;48.5593000;;;;;;;;;;;;;;;;;;;;;;;;;;;;;;;;;;;;;;;;;;;;;;;;;;;;;;;;;
176;Agence Nestenn Immobilier;14100;LISIEUX;19; Rue au Char;;14366;88540306300013;Agence immobili�re;https://immobilier-lisieux.nestenn.com/contact;https://immobilier-lisieux.nestenn.com/;0.2279522;49.1448890;;;;;;;;;;;;;;;;;;;;;;;;;;;;;;;;;;;;;;;;;;;;;;;;;;;;;;;;;
177;Agence Nestenn Immobilier;95290;L'ISLE ADAM;40; Grande Rue;;95313;40357769500014;Agence immobili�re;https://immobilier-lisleadam.nestenn.com/contact;https://immobilier-lisleadam.nestenn.com/;2.2170089;49.1121512;;;;;;;;;;;;;;;;;;;;;;;;;;;;;;;;;;;;;;;;;;;;;;;;;;;;;;;;;
178;Agence Nestenn Immobilier;37600;LOCHES;3; Rue Alfred de Vigny;;37132;48482264800016;Agence immobili�re;https://immobilier-loches.nestenn.comcontact;https://immobilier-loches.nestenn.com;0.9963685;47.1290920;;;;;;;;;;;;;;;;;;;;;;;;;;;;;;;;;;;;;;;;;;;;;;;;;;;;;;;;;
179;Agence Nestenn Immobilier;56500;LOCMINE;11; rond-point de la R�publique;;56117;45237958900032;Agence immobili�re;https://immobilier-locmine.nestenn.com/contact;https://immobilier-locmine.nestenn.com/;-2.8295581;47.8822255;;;;;;;;;;;;;;;;;;;;;;;;;;;;;;;;;;;;;;;;;;;;;;;;;;;;;;;;;
180;Agence Nestenn Immobilier;59160;LOMME;52; Ter Avenue de La R�publique;;59350;49313548700020;Agence immobili�re;https://immobilier-lomme.nestenn.comcontact;https://immobilier-lomme.nestenn.com;3.0152000;50.6400000;;;;;;;;;;;;;;;;;;;;;;;;;;;;;;;;;;;;;;;;;;;;;;;;;;;;;;;;;
181;Agence Nestenn Immobilier;83510;LORGUES;23; avenue de Toulon;;83072;49945657200019;Agence immobili�re;https://immobilier-lorgues.nestenn.com/contact;https://immobilier-lorgues.nestenn.com/;6.3569950;43.4918970;;;;;;;;;;;;;;;;;;;;;;;;;;;;;;;;;;;;;;;;;;;;;;;;;;;;;;;;;
182;Agence Nestenn Immobilier;56100;LORIENT;150; Rue de Belgique;;56121;42267614800014;Agence immobili�re;https://immobilier-lorient.nestenn.com/contact;https://immobilier-lorient.nestenn.com/;-3.3852370;47.7606600;;;;;;;;;;;;;;;;;;;;;;;;;;;;;;;;;;;;;;;;;;;;;;;;;;;;;;;;;
183;Agence Nestenn Immobilier;22600;LOUDEAC;12;Place de l'Eglise;;22136;49189687400014;Agence immobili�re;https://immobilier-loudeac.nestenn.com/contact;https://immobilier-loudeac.nestenn.com/;-2.7540021;48.1762224;;;;;;;;;;;;;;;;;;;;;;;;;;;;;;;;;;;;;;;;;;;;;;;;;;;;;;;;;
184;Agence Nestenn Immobilier;71500;LOUHANS;51;, Grande Rue;;71263;;Agence immobili�re;https://immobilier-louhans.nestenn.comcontact;https://immobilier-louhans.nestenn.com;5.2226500;46.6293200;;;;;;;;;;;;;;;;;;;;;;;;;;;;;;;;;;;;;;;;;;;;;;;;;;;;;;;;;
185;Agence Nestenn Immobilier;95380;LOUVRES;78; Rue de Paris;;95351;48009023200038;Agence immobili�re;https://immobilier-louvres.nestenn.comcontact;https://immobilier-louvres.nestenn.com;2.5073818;49.0421986;;;;;;;;;;;;;;;;;;;;;;;;;;;;;;;;;;;;;;;;;;;;;;;;;;;;;;;;;
186;Agence Nestenn Immobilier;85400;LUCON;21; Rue Georges Cl�menceau;;85128;50147508100029;Agence immobili�re;https://immobilier-lucon.nestenn.com/contact;https://immobilier-lucon.nestenn.com/;-1.1665472;46.4558415;;;;;;;;;;;;;;;;;;;;;;;;;;;;;;;;;;;;;;;;;;;;;;;;;;;;;;;;;
187;Agence Nestenn Immobilier;31240;L'UNION;85;Avenue des Pyr�n�es;;31561;83511262400027;Agence immobili�re;https://immobilier-lunion.nestenn.com/contact;https://immobilier-lunion.nestenn.com/;1.5004000;43.6510000;;;;;;;;;;;;;;;;;;;;;;;;;;;;;;;;;;;;;;;;;;;;;;;;;;;;;;;;;
188;Agence Nestenn Immobilier;95270;LUZARCHES;2; Rue Charles de Gaulle;;95352;42286993300040;Agence immobili�re;https://immobilier-luzarches.nestenn.com/contact;https://immobilier-luzarches.nestenn.com/;2.4219950;49.1126770;;;;;;;;;;;;;;;;;;;;;;;;;;;;;;;;;;;;;;;;;;;;;;;;;;;;;;;;;
189;Agence Nestenn Immobilier;69004;LYON 04;17; rue Belfort;;69384;81230847600025;Agence immobili�re;https://immobilier-lyon4.nestenn.com/contact;https://immobilier-lyon4.nestenn.com/;4.8348000;45.7771500;;;;;;;;;;;;;;;;;;;;;;;;;;;;;;;;;;;;;;;;;;;;;;;;;;;;;;;;;
190;Agence Nestenn Immobilier;69005;LYON 05;39; Rue des Farges;;69385;48949589500018;Agence immobili�re;https://immobilier-lyon-5.nestenn.comcontact;https://immobilier-lyon-5.nestenn.com;4.8202200;45.7565100;;;;;;;;;;;;;;;;;;;;;;;;;;;;;;;;;;;;;;;;;;;;;;;;;;;;;;;;;
191;Agence Nestenn Immobilier;69006;LYON 06;38; Rue du Professeur Weill;;69386;49477766700010;Agence immobili�re;https://immobilier-lyon-6.nestenn.com/contact;https://immobilier-lyon-6.nestenn.com/;4.8566200;45.7672600;;;;;;;;;;;;;;;;;;;;;;;;;;;;;;;;;;;;;;;;;;;;;;;;;;;;;;;;;
192;Agence Nestenn Immobilier;69008;LYON 08;11; Rue Antoine Lumi�re;;69388;47986904200024;Agence immobili�re;https://immobilier-lyon-8.nestenn.com/contact;https://immobilier-lyon-8.nestenn.com/;4.8698800;45.7430700;;;;;;;;;;;;;;;;;;;;;;;;;;;;;;;;;;;;;;;;;;;;;;;;;;;;;;;;;
193;Agence Nestenn Immobilier;95420;MAGNY EN VEXIN;6;place Potiquet ;;95355;81980717300011;Agence immobili�re;https://immobilier-magny-en-vexin.nestenn.com/contact;https://immobilier-magny-en-vexin.nestenn.com/;1.7873510;49.1553140;;;;;;;;;;;;;;;;;;;;;;;;;;;;;;;;;;;;;;;;;;;;;;;;;;;;;;;;;
194;Agence Nestenn Immobilier;06210;MANDELIEU LA NAPOULE;601; Avenue de Frejus;;6079;84796762700013;Agence immobili�re;https://immobilier-mandelieu.nestenn.com/contact;https://immobilier-mandelieu.nestenn.com/;6.9327890;43.5348500;;;;;;;;;;;;;;;;;;;;;;;;;;;;;;;;;;;;;;;;;;;;;;;;;;;;;;;;;
195;Agence Nestenn Immobilier;95640;MARINES;26; Rue du g�n�ral de gaulle;;95370;81335675500013;Agence immobili�re;https://immobilier-marines.nestenn.com/contact;https://immobilier-marines.nestenn.com/;1.9789823;49.1447585;;;;;;;;;;;;;;;;;;;;;;;;;;;;;;;;;;;;;;;;;;;;;;;;;;;;;;;;;
196;Agence Nestenn Immobilier;13005;MARSEILLE 05;152; Boulevard Chave;;13205;80316324500019;Agence immobili�re;https://immobilier-marseille-5.nestenn.comcontact;https://immobilier-marseille-5.nestenn.com;5.3951860;43.2954560;;;;;;;;;;;;;;;;;;;;;;;;;;;;;;;;;;;;;;;;;;;;;;;;;;;;;;;;;
197;Agence Nestenn Immobilier;13008;MARSEILLE 08;172; avenue de Mazargues ;;13208;84893262000018;Agence immobili�re;https://immobilier-marseille-8.nestenn.com/contact;https://immobilier-marseille-8.nestenn.com/;5.3884535;43.2648664;;;;;;;;;;;;;;;;;;;;;;;;;;;;;;;;;;;;;;;;;;;;;;;;;;;;;;;;;
198;Agence Nestenn Immobilier;13012;MARSEILLE 12;76; rue Montaigne;;13212;84143739500012;Agence immobili�re;https://immobilier-marseille-12.nestenn.com/contact;https://immobilier-marseille-12.nestenn.com/;5.4155130;43.3040770;;;;;;;;;;;;;;;;;;;;;;;;;;;;;;;;;;;;;;;;;;;;;;;;;;;;;;;;;
199;Agence Nestenn Immobilier;13500;MARTIGUES;50; Quai G�n�ral Leclerc;;13056;50055142300037;Agence immobili�re;https://immobilier-martigues.nestenn.com/contact;https://immobilier-martigues.nestenn.com/;5.0569330;43.4033600;;;;;;;;;;;;;;;;;;;;;;;;;;;;;;;;;;;;;;;;;;;;;;;;;;;;;;;;;
200;Agence Nestenn Immobilier;91300;MASSY;15;Rue de la Division Leclerc;;91377;50478461200013;Agence immobili�re;https://immobilier-massy.nestenn.com/contact;https://immobilier-massy.nestenn.com/;2.2746000;48.7300000;;;;;;;;;;;;;;;;;;;;;;;;;;;;;;;;;;;;;;;;;;;;;;;;;;;;;;;;;
201;Agence Nestenn Immobilier;77100;MEAUX;31;Cours Pinteville;;77284;82496891100035;Agence immobili�re;https://immobilier-meaux.nestenn.com/contact;https://immobilier-meaux.nestenn.com/;2.8720523;48.9605370;;;;;;;;;;;;;;;;;;;;;;;;;;;;;;;;;;;;;;;;;;;;;;;;;;;;;;;;;
202;Agence Nestenn Immobilier;77000;MELUN;8;Bis Avenue Thiers;;77288;78715079600029;Agence immobili�re;https://immobilier-melun.nestenn.com/contact;https://immobilier-melun.nestenn.com/;2.6556850;48.5322700;;;;;;;;;;;;;;;;;;;;;;;;;;;;;;;;;;;;;;;;;;;;;;;;;;;;;;;;;
203;Agence Nestenn Immobilier;6500;MENTON;28; Avenue Carnot;;6083;80400628600020;Agence immobili�re;https://immobilier-menton.nestenn.comcontact;https://immobilier-menton.nestenn.com;7.4975200;43.7723500;;;;;;;;;;;;;;;;;;;;;;;;;;;;;;;;;;;;;;;;;;;;;;;;;;;;;;;;;
204;Agence Nestenn Immobilier;33700;MERIGNAC;491; Avenue de Verdun;;33281;78934154200015;Agence immobili�re;https://immobilier-merignac.nestenn.com/contact;https://immobilier-merignac.nestenn.com/;-0.6451000;44.8415000;;;;;;;;;;;;;;;;;;;;;;;;;;;;;;;;;;;;;;;;;;;;;;;;;;;;;;;;;
205;Agence Nestenn Immobilier;60110;MERU;85; Rue des Martyrs de la R�sistance;;60395;44462833300015;Agence immobili�re;https://immobilier-meru.nestenn.comcontact;https://immobilier-meru.nestenn.com;2.1338134;49.2362992;;;;;;;;;;;;;;;;;;;;;;;;;;;;;;;;;;;;;;;;;;;;;;;;;;;;;;;;;
206;Agence Nestenn Immobilier;57000;METZ;33; avenue Foch;;57463;83020347700019;Agence immobili�re;https://immobilier-metz.nestenn.com/contact;https://immobilier-metz.nestenn.com/;6.1783590;49.1114430;;;;;;;;;;;;;;;;;;;;;;;;;;;;;;;;;;;;;;;;;;;;;;;;;;;;;;;;;
207;Agence Nestenn Immobilier;1800;MEXIMIEUX;2;" Avenue du Docteur Berthier
Centre Cial Magali 1";;1244;81800357600019;Agence immobili�re;https://immobilier-meximieux.nestenn.com/contact;https://immobilier-meximieux.nestenn.com/;5.1944090;45.9027330;;;;;;;;;;;;;;;;;;;;;;;;;;;;;;;;;;;;;;;;;;;;;;;;;;;;;;;;;
208;Agence Nestenn Immobilier;69330;MEYZIEU;2;Rue gambetta;;69282;48923642200015;Agence immobili�re;https://immobilier-meyzieu.nestenn.com/contact;https://immobilier-meyzieu.nestenn.com/;4.9953740;45.7666400;;;;;;;;;;;;;;;;;;;;;;;;;;;;;;;;;;;;;;;;;;;;;;;;;;;;;;;;;
209;Agence Nestenn Immobilier;FL-33157;MIAMI - FLORIDE;;"15321 South Dixie
Highway Palmetto Bay
Adresse Jimmy Morose :
27238 SW 121 AVE
HOMESTEAD FL 33032
USA";;0;;Agence immobili�re;https://immobilier-miami.nestenn.com/contact;https://immobilier-miami.nestenn.com/;-80.3409660;25.6289110;;;;;;;;;;;;;;;;;;;;;;;;;;;;;;;;;;;;;;;;;;;;;;;;;;;;;;;;;
210;Agence Nestenn Immobilier;69370;MILLERY;4; avenue NEMOS;;69133;43808224000039;Agence immobili�re;https://immobilier-millery.nestenn.com/contact;https://immobilier-millery.nestenn.com/;4.7823880;45.6335150;;;;;;;;;;;;;;;;;;;;;;;;;;;;;;;;;;;;;;;;;;;;;;;;;;;;;;;;;
211;Agence Nestenn Immobilier;13140;MIRAMAS;;Avenue de Belgique;;13063;88266510200019;Agence immobili�re;https://immobilier-miramas.nestenn.com/contact;https://immobilier-miramas.nestenn.com/;4.9980128;43.5962300;;;;;;;;;;;;;;;;;;;;;;;;;;;;;;;;;;;;;;;;;;;;;;;;;;;;;;;;;
212;Agence Nestenn Immobilier;80837;MOKA - ILE MAURICE;;80837 MOKA;;0;;Agence immobili�re;https://immobilier-moka.nestenn.com/contact;https://immobilier-moka.nestenn.com/;57.5024693;-20.2228704;;;;;;;;;;;;;;;;;;;;;;;;;;;;;;;;;;;;;;;;;;;;;;;;;;;;;;;;;
213;Agence Nestenn Immobilier;14120;MONDEVILLE;17;" Rue Chapron
Les Terrasses du Parc";;14437;82101807400012;Agence immobili�re;https://immobilier-mondeville.nestenn.com/contact;https://immobilier-mondeville.nestenn.com/;-0.3221970;49.1758320;;;;;;;;;;;;;;;;;;;;;;;;;;;;;;;;;;;;;;;;;;;;;;;;;;;;;;;;;
214;Agence Nestenn Immobilier;40000;"MONT DE MARSAN
(Achat-Vente)";70; Rue L�on Gambetta;;40192;49441441000014;Agence immobili�re;https://immobilier-montdemarsan.nestenn.com/contact;https://immobilier-montdemarsan.nestenn.com/;-0.5006871;43.8887026;;;;;;;;;;;;;;;;;;;;;;;;;;;;;;;;;;;;;;;;;;;;;;;;;;;;;;;;;
215;Agence Nestenn Immobilier;40000;"MONT DE MARSAN
(Location-Gestion)";72;Rue L�on Gambetta;;40192;49441441000014;Agence immobili�re;https://immobilier-montdemarsan.nestenn.com/contact;https://immobilier-montdemarsan.nestenn.com/;-0.5006871;43.8887026;;;;;;;;;;;;;;;;;;;;;;;;;;;;;;;;;;;;;;;;;;;;;;;;;;;;;;;;;
216;Agence Nestenn Immobilier;85600;MONTAIGU;11;Place du Champ de Foire;;85146;52275281500012;Agence immobili�re;https://immobilier-montaigu.nestenn.com/contact;https://immobilier-montaigu.nestenn.com/;-1.3136075;46.9778854;;;;;;;;;;;;;;;;;;;;;;;;;;;;;;;;;;;;;;;;;;;;;;;;;;;;;;;;;
217;Agence Nestenn Immobilier;82000;MONTAUBAN LACAPELLE;119;Faubourg Lacapelle;;82121;75263962500017;Agence immobili�re;https://immobilier-montauban-lacapelle.nestenn.com/contact;https://immobilier-montauban-lacapelle.nestenn.com/;1.3573200;44.0153300;;;;;;;;;;;;;;;;;;;;;;;;;;;;;;;;;;;;;;;;;;;;;;;;;;;;;;;;;
218;Agence Nestenn Immobilier;82000;"MONTAUBAN
GAMBETTA";52; Avenue Gambetta;;82121;48489278100010;Agence immobili�re;https://immobilier-montauban-gambetta.nestenn.com/contact;https://immobilier-montauban-gambetta.nestenn.com/;1.3597368;44.0189489;;;;;;;;;;;;;;;;;;;;;;;;;;;;;;;;;;;;;;;;;;;;;;;;;;;;;;;;;
219;Agence Nestenn Immobilier;42600;MONTBRISON;9;Rue des Arches;;42147;48953237400027;Agence immobili�re;https://immobilier-montbrison.nestenn.com/contact;https://immobilier-montbrison.nestenn.com/;4.0632382;45.6078602;;;;;;;;;;;;;;;;;;;;;;;;;;;;;;;;;;;;;;;;;;;;;;;;;;;;;;;;;
220;Agence Nestenn Immobilier;26200;MONTELIMAR;4;"L'immo du particulier
Rue Bouverie";;26198;90147605100015;Agence immobili�re;https://immobilier-montelimar.nestenn.com/contact;https://immobilier-montelimar.nestenn.com/;4.7508100;44.5598700;;;;;;;;;;;;;;;;;;;;;;;;;;;;;;;;;;;;;;;;;;;;;;;;;;;;;;;;;
221;Agence Nestenn Immobilier;77130;MONTEREAU-FAULT-YONNE;8;Rue Emile Zola;;77305;88030666700010;Agence immobili�re;https://immobilier-montereau-fault-yonne.nestenn.com/contact;https://immobilier-montereau-fault-yonne.nestenn.com/;2.9559908;48.3859380;;;;;;;;;;;;;;;;;;;;;;;;;;;;;;;;;;;;;;;;;;;;;;;;;;;;;;;;;
222;Agence Nestenn Immobilier;78180;MONTIGNY LE BRETONNEUX;2; place des Nymphes;;78423;44532619200025;Agence immobili�re;https://immobilier-montigny-le-bretonneux-village.nestenn.com/contact;https://immobilier-montigny-le-bretonneux-village.nestenn.com/;2.0273296;48.7690607;;;;;;;;;;;;;;;;;;;;;;;;;;;;;;;;;;;;;;;;;;;;;;;;;;;;;;;;;
223;Agence Nestenn Immobilier;1120;MONTLUEL;205; Grande Rue;;1262;78978719900015;Agence immobili�re;https://immobilier-montluel.nestenn.com/contact;https://immobilier-montluel.nestenn.com/;5.0560000;45.8513000;;;;;;;;;;;;;;;;;;;;;;;;;;;;;;;;;;;;;;;;;;;;;;;;;;;;;;;;;
224;Agence Nestenn Immobilier;44550;MONTOIR DE BRETAGNE;1;Rue Jean Jaur�s;;44103;43196370100013;Agence immobili�re;https://immobilier-montoir.nestenn.com/contact;https://immobilier-montoir.nestenn.com/;-2.1547579;47.3278285;;;;;;;;;;;;;;;;;;;;;;;;;;;;;;;;;;;;;;;;;;;;;;;;;;;;;;;;;
225;Agence Nestenn Immobilier;93100;MONTREUIL;31-33;boulevard de Chanzy;;93048;47897087400010;Agence immobili�re;https://immobilier-montreuil.nestenn.com/contact;https://immobilier-montreuil.nestenn.com/;2.4328800;48.8585000;;;;;;;;;;;;;;;;;;;;;;;;;;;;;;;;;;;;;;;;;;;;;;;;;;;;;;;;;
226;Agence Nestenn Immobilier;42210;MONTROND LES BAINS;52; Avenue des Sources;;42149;48953237400027;Agence immobili�re;https://immobilier-montrond.nestenn.com/contact;https://immobilier-montrond.nestenn.com/;4.2315871;45.6437289;;;;;;;;;;;;;;;;;;;;;;;;;;;;;;;;;;;;;;;;;;;;;;;;;;;;;;;;;
227;Agence Nestenn Immobilier;72500;MONTVAL SUR LOIR ;;"Centre cial Loir et Berc�
ZAC du Ch�ne vert";;72071;83789991300011;Agence immobili�re;https://immobilier-montvalsurloir.nestenn.com/contact;https://immobilier-montvalsurloir.nestenn.com/;0.4320288;47.6867197;;;;;;;;;;;;;;;;;;;;;;;;;;;;;;;;;;;;;;;;;;;;;;;;;;;;;;;;;
228;Agence Nestenn Immobilier;84310;MORIERES LES AVIGNON;36;Avenue Jean Monnet;;84081;51269735000035;Agence immobili�re;https://immobilier-morieres-les-avignon.nestenn.com/contact;https://immobilier-morieres-les-avignon.nestenn.com/;4.9040960;43.9396780;;;;;;;;;;;;;;;;;;;;;;;;;;;;;;;;;;;;;;;;;;;;;;;;;;;;;;;;;
229;Agence Nestenn Immobilier;6250;MOUGINS;16; Impasse Font Roubert;;6085;88950967500019;Agence immobili�re;https://immobilier-mougins.nestenn.com/contact;https://immobilier-mougins.nestenn.com/;6.9884158;43.6050350;;;;;;;;;;;;;;;;;;;;;;;;;;;;;;;;;;;;;;;;;;;;;;;;;;;;;;;;;
230;Agence Nestenn Immobilier;31600;MURET;135; bis Avenue Jacques Douzans;;31395;48888707600021;Agence immobili�re;https://immobilier-muret.nestenn.com/contact;https://immobilier-muret.nestenn.com/;1.3294548;43.4694717;;;;;;;;;;;;;;;;;;;;;;;;;;;;;;;;;;;;;;;;;;;;;;;;;;;;;;;;;
231;Agence Nestenn Immobilier;56190;MUZILLAC;11; Place Saint Julien;;56143;83934334000015;Agence immobili�re;https://immobilier-muzillac.nestenn.com/contact;https://immobilier-muzillac.nestenn.com/;-2.4849079;47.5531772;;;;;;;;;;;;;;;;;;;;;;;;;;;;;;;;;;;;;;;;;;;;;;;;;;;;;;;;;
232;Agence Nestenn Immobilier;54000;NANCY SUD;135; Avenue G�n�ral Leclerc;;54395;83874876200013;Agence immobili�re;https://immobilier-nancy.nestenn.com/contact;https://immobilier-nancy.nestenn.com/;6.1751900;48.6743200;;;;;;;;;;;;;;;;;;;;;;;;;;;;;;;;;;;;;;;;;;;;;;;;;;;;;;;;;
233;Agence Nestenn Immobilier;44100;NANTES CHANTENAY;38; Place Jean Mac�;;44109;48092939700010;Agence immobili�re;https://immobilier-nantes-ouest-chantenay.nestenn.com/contact;https://immobilier-nantes-ouest-chantenay.nestenn.com/;-1.5891767;47.2000255;;;;;;;;;;;;;;;;;;;;;;;;;;;;;;;;;;;;;;;;;;;;;;;;;;;;;;;;;
234;Agence Nestenn Immobilier;44700;NANTES NORD ORVAULT;111; Route de Rennes;;44114;83206677300017;Agence immobili�re;https://immobilier-nantesnord-orvault.nestenn.com/contact;https://immobilier-nantesnord-orvault.nestenn.com/;-1.5768406;47.2542671;;;;;;;;;;;;;;;;;;;;;;;;;;;;;;;;;;;;;;;;;;;;;;;;;;;;;;;;;
235;Agence Nestenn Immobilier;44000;NANTES RPV;140; Rue des Hauts Pav�s;;44109;41900259700013;Agence immobili�re;https://immobilier-nantesrondpointdevannes.nestenn.com/contact;https://immobilier-nantesrondpointdevannes.nestenn.com/;-1.5720920;47.2294380;;;;;;;;;;;;;;;;;;;;;;;;;;;;;;;;;;;;;;;;;;;;;;;;;;;;;;;;;
236;Agence Nestenn Immobilier;44230;NANTES SUD - ST SEBASTIEN SUR LOIRE;159;Route de Clisson;;44190;81833945900013;Agence immobili�re;https://immobilier-nantes-sud.nestenn.com/contact;https://immobilier-nantes-sud.nestenn.com/;-1.5136500;47.1897000;;;;;;;;;;;;;;;;;;;;;;;;;;;;;;;;;;;;;;;;;;;;;;;;;;;;;;;;;
237;Agence Nestenn Immobilier;44300;NANTES TORTIERE;136;Boulevard des Belges;;44109;41900259700013;Agence immobili�re;https://immobilier-nantes-est.nestenn.com/contact;https://immobilier-nantes-est.nestenn.com/;-1.5469918;47.2354575;;;;;;;;;;;;;;;;;;;;;;;;;;;;;;;;;;;;;;;;;;;;;;;;;;;;;;;;;
238;Agence Nestenn Immobilier;47600;NERAC;50;All�e d'Albret;;47195;90047063400016;Agence immobili�re;https://immobilier-nerac.nestenn.com/contact;https://immobilier-nerac.nestenn.com/;0.3378230;44.1341670;;;;;;;;;;;;;;;;;;;;;;;;;;;;;;;;;;;;;;;;;;;;;;;;;;;;;;;;;
239;Agence Nestenn Immobilier;93330;NEUILLY SUR MARNE;01-sept;"Centre Cial Auchan
Boulevard Mar�chal Foch";;93050;84952732000014;Agence immobili�re;https://immobilier-neuilly-sur-marne.nestenn.com/contact;https://immobilier-neuilly-sur-marne.nestenn.com/;2.5175900;48.8544980;;;;;;;;;;;;;;;;;;;;;;;;;;;;;;;;;;;;;;;;;;;;;;;;;;;;;;;;;
240;Agence Nestenn Immobilier;06100;NICE NORD;110; Avenue Saint-Lambert ;;6088;89331199300016;Agence immobili�re;https://immobilier-nice-nord.nestenn.com/contact;https://immobilier-nice-nord.nestenn.com/;7.2627000;43.7154000;;;;;;;;;;;;;;;;;;;;;;;;;;;;;;;;;;;;;;;;;;;;;;;;;;;;;;;;;
241;Agence Nestenn Immobilier;6200;NICE OUEST;30;Avenue de la Californie;;6088;89044013400025;Agence immobili�re;https://immobilier-nice-ouest.nestenn.comcontact;https://immobilier-nice-ouest.nestenn.com;7.2420700;43.6904210;;;;;;;;;;;;;;;;;;;;;;;;;;;;;;;;;;;;;;;;;;;;;;;;;;;;;;;;;
242;Agence Nestenn Immobilier;06300;NICE PORT;18;" Boulevard de Riquier
Villa Barel";;6088;83942346400016;Agence immobili�re;https://immobilier-nice-port.nestenn.com/contact;https://immobilier-nice-port.nestenn.com/;7.2881318;43.7017650;;;;;;;;;;;;;;;;;;;;;;;;;;;;;;;;;;;;;;;;;;;;;;;;;;;;;;;;;
243;Agence Nestenn Immobilier;60430;NOAILLES;67;Rue de Paris;;60462;50796189400015;Agence immobili�re;https://immobilier-noailles.nestenn.com/contact;https://immobilier-noailles.nestenn.com/;2.2025763;49.3162187;;;;;;;;;;;;;;;;;;;;;;;;;;;;;;;;;;;;;;;;;;;;;;;;;;;;;;;;;
244;Agence Nestenn Immobilier;77186;NOISIEL;44; Cours des Roches;;77337;82496891100027;Agence immobili�re;https://immobilier-noisiel.nestenn.com/contact;https://immobilier-noisiel.nestenn.com/;2.6129703;48.8440677;;;;;;;;;;;;;;;;;;;;;;;;;;;;;;;;;;;;;;;;;;;;;;;;;;;;;;;;;
245;Agence Nestenn Immobilier;24300;NONTRON;2;Boulevard Gambetta;;24311;;Agence immobili�re;https://immobilier-nontron.nestenn.com/contact;https://immobilier-nontron.nestenn.com/;0.6625000;45.5328000;;;;;;;;;;;;;;;;;;;;;;;;;;;;;;;;;;;;;;;;;;;;;;;;;;;;;;;;;
246;Agence Nestenn Immobilier;98800;NOUMEA;5;Rue Roger Gervolino - Magenta;;98818;;Agence immobili�re;https://immobilier-noumea.nestenn.com/contact;https://immobilier-noumea.nestenn.com/;99.9999999;-22.2669674;;;;;;;;;;;;;;;;;;;;;;;;;;;;;;;;;;;;;;;;;;;;;;;;;;;;;;;;;
247;Agence Nestenn Immobilier;45160;OLIVET;153;"  Rue Marcel Belot
";;45232;89269581800013;Agence immobili�re;https://immobilier-olivet.nestenn.com/contact;https://immobilier-olivet.nestenn.com/;1.9015550;47.8661915;;;;;;;;;;;;;;;;;;;;;;;;;;;;;;;;;;;;;;;;;;;;;;;;;;;;;;;;;
248;Agence Nestenn Immobilier;84100;ORANGE;58; cours Aristide Briand;;84087;89490451500018;Agence immobili�re;https://immobilier-orange.nestenn.com/contact;https://immobilier-orange.nestenn.com/;4.8058550;44.1355300;;;;;;;;;;;;;;;;;;;;;;;;;;;;;;;;;;;;;;;;;;;;;;;;;;;;;;;;;
249;Agence Nestenn Immobilier;78910;ORGERUS;49;bis Grande Rue;;78465;84275618100025;Agence immobili�re;https://immobilier-orgerus.nestenn.com/contact;https://immobilier-orgerus.nestenn.com/;1.6986751;48.8404480;;;;;;;;;;;;;;;;;;;;;;;;;;;;;;;;;;;;;;;;;;;;;;;;;;;;;;;;;
250;Agence Nestenn Immobilier;45000;ORLEANS;12;Rue des Carmes;;45234;49515694500018;Agence immobili�re;https://immobilier-orleans.nestenn.com/contact;https://immobilier-orleans.nestenn.com/;1.9011319;47.9016118;;;;;;;;;;;;;;;;;;;;;;;;;;;;;;;;;;;;;;;;;;;;;;;;;;;;;;;;;
251;Agence Nestenn Immobilier;35740;PACE;;"Centre Commercial Opera
Boulevard de la Giraudais";;35210;89474476200010;Agence immobili�re;https://immobilier-pace.nestenn.com/contact;https://immobilier-pace.nestenn.com/;-1.7672383;48.1385399;;;;;;;;;;;;;;;;;;;;;;;;;;;;;;;;;;;;;;;;;;;;;;;;;;;;;;;;;
252;Agence Nestenn Immobilier;09100;PAMIERS;2;Place Sainte H�l�ne;;9225;81479175200011;Agence immobili�re;https://immobilier-pamiers.nestenn.com/contact;https://immobilier-pamiers.nestenn.com/;1.6152820;43.1153360;;;;;;;;;;;;;;;;;;;;;;;;;;;;;;;;;;;;;;;;;;;;;;;;;;;;;;;;;
253;Agence Nestenn Immobilier;93500;PANTIN;30; Quai de l'Aisne;;93055;80327908200017;Agence immobili�re;https://immobilier-pantin.nestenn.com/contact;https://immobilier-pantin.nestenn.com/;2.4096930;48.8948000;;;;;;;;;;;;;;;;;;;;;;;;;;;;;;;;;;;;;;;;;;;;;;;;;;;;;;;;;
254;Agence Nestenn Immobilier;75008;PARIS 08;179; Boulevard Haussmann;;75108;47766067400011;Agence immobili�re;https://immobilier-paris-haussmann.nestenn.com/contact;https://immobilier-paris-haussmann.nestenn.com/;2.3057930;48.8747600;;;;;;;;;;;;;;;;;;;;;;;;;;;;;;;;;;;;;;;;;;;;;;;;;;;;;;;;;
255;Agence Nestenn Immobilier;75011;"PARIS 11
CHEMIN VERT";124; Rue du Chemin Vert;;75111;45075211800023;Agence immobili�re;https://immobilier-paris-11.nestenn.com/contact;https://immobilier-paris-11.nestenn.com/;2.3842500;48.8620600;;;;;;;;;;;;;;;;;;;;;;;;;;;;;;;;;;;;;;;;;;;;;;;;;;;;;;;;;
256;Agence Nestenn Immobilier;75011;"PARIS 11
PARMENTIER";118; Avenue Parmentier;;75111;45075211800023;Agence immobili�re;https://immobilier-paris-11.nestenn.com/contact;https://immobilier-paris-11.nestenn.com/;2.3842500;48.8620600;;;;;;;;;;;;;;;;;;;;;;;;;;;;;;;;;;;;;;;;;;;;;;;;;;;;;;;;;
257;Agence Nestenn Immobilier;75012;PARIS 12;7;avenue du Docteur Arnold Netter;;75112;81454615600013;Agence immobili�re;https://immobilier-paris-12.nestenn.com/contact;https://immobilier-paris-12.nestenn.com/;2.4048500;48.8415000;;;;;;;;;;;;;;;;;;;;;;;;;;;;;;;;;;;;;;;;;;;;;;;;;;;;;;;;;
258;Agence Nestenn Immobilier;75017;PARIS 17;17; Rue des Moines;;75117;83279344200027;Agence immobili�re;https://immobilier-paris-17.nestenn.com/contact;https://immobilier-paris-17.nestenn.com/;2.3190000;48.8885000;;;;;;;;;;;;;;;;;;;;;;;;;;;;;;;;;;;;;;;;;;;;;;;;;;;;;;;;;
259;Agence Nestenn Immobilier;75018;"PARIS 18
GUY M�QUET";112; Avenue de saint Ouen;;75118;45015990000015;Agence immobili�re;https://immobilier-paris-18.nestenn.com/contact;https://immobilier-paris-18.nestenn.com/;2.3281900;48.8944780;;;;;;;;;;;;;;;;;;;;;;;;;;;;;;;;;;;;;;;;;;;;;;;;;;;;;;;;;
260;Agence Nestenn Immobilier;75018;"PARIS 18
MONTMARTRE";40;Avenue Junot;;75118;89978562000019;Agence immobili�re;https://immobilier-paris-18-montmartre.nestenn.com/contact;https://immobilier-paris-18-montmartre.nestenn.com/;2.3371900;48.8892300;;;;;;;;;;;;;;;;;;;;;;;;;;;;;;;;;;;;;;;;;;;;;;;;;;;;;;;;;
261;Agence Nestenn Immobilier;75019;PARIS 19;88;Avenue Jean Jaur�s;;75119;88434990300010;Agence immobili�re;https://immobilier-paris-19.nestenn.com/contact;https://immobilier-paris-19.nestenn.com/;2.3764993;48.8848070;;;;;;;;;;;;;;;;;;;;;;;;;;;;;;;;;;;;;;;;;;;;;;;;;;;;;;;;;
262;Agence Nestenn Immobilier;64000;PAU;16;Bis Boulevard d'Alsace Lorraine;;64445;47792932700013;Agence immobili�re;https://immobilier-pau.nestenn.com/contact;https://immobilier-pau.nestenn.com/;-0.3779447;43.3169449;;;;;;;;;;;;;;;;;;;;;;;;;;;;;;;;;;;;;;;;;;;;;;;;;;;;;;;;;
263;Agence Nestenn Immobilier;66000;PERPIGNAN SUD;2; Rue Jean-Fran�ois Marmontel;;66136;51194754100021;Agence immobili�re;https://immobilier-perpignan.nestenn.com/contact;https://immobilier-perpignan.nestenn.com/;2.8960180;42.6912930;;;;;;;;;;;;;;;;;;;;;;;;;;;;;;;;;;;;;;;;;;;;;;;;;;;;;;;;;
264;Agence Nestenn Immobilier;66100;PERPIGNAN NORD;42;boulevard Henri Poincar�;;66136;;Agence immobili�re;https://immobilier-perpignan.nestenn.com//contact;https://immobilier-perpignan.nestenn.com//;2.8860000;42.6887000;;;;;;;;;;;;;;;;;;;;;;;;;;;;;;;;;;;;;;;;;;;;;;;;;;;;;;;;;
265;Agence Nestenn Immobilier;22700;PERROS GUIREC;3;Place de l'H�tel de Ville;;22168;31797821100017;Agence immobili�re;https://immobilier-perrosguirec.nestenn.com/contact;https://immobilier-perrosguirec.nestenn.com/;-3.4460993;48.8151294;;;;;;;;;;;;;;;;;;;;;;;;;;;;;;;;;;;;;;;;;;;;;;;;;;;;;;;;;
266;Agence Nestenn Immobilier;95340;PERSAN;1;Avenue Jean jaur�s;;95487;84886881600010;Agence immobili�re;https://immobilier-persan.nestenn.com/contact;https://immobilier-persan.nestenn.com/;2.2844240;49.1461950;;;;;;;;;;;;;;;;;;;;;;;;;;;;;;;;;;;;;;;;;;;;;;;;;;;;;;;;;
267;Agence Nestenn Immobilier;33600;PESSAC;21; Avenue Jean Jaur�s;;33318;45103219700027;Agence immobili�re;https://immobilier-pessac.nestenn.com/contact;https://immobilier-pessac.nestenn.com/;-0.6296520;44.8065140;;;;;;;;;;;;;;;;;;;;;;;;;;;;;;;;;;;;;;;;;;;;;;;;;;;;;;;;;
268;Agence Nestenn Immobilier;6530;PEYMEINADE;56; Avenue de Boutiny;;6095;87926119600015;Agence immobili�re;https://immobilier-peymeinade.nestenn.com/contact;https://immobilier-peymeinade.nestenn.com/;6.8772224;43.6417831;;;;;;;;;;;;;;;;;;;;;;;;;;;;;;;;;;;;;;;;;;;;;;;;;;;;;;;;;
269;Agence Nestenn Immobilier;22940;PLAINTEL;15; Place de la R�publique;;22171;82408029500010;Agence immobili�re;https://immobilier-plaintel.nestenn.com/contact;https://immobilier-plaintel.nestenn.com/;-2.8170340;48.4074160;;;;;;;;;;;;;;;;;;;;;;;;;;;;;;;;;;;;;;;;;;;;;;;;;;;;;;;;;
270;Agence Nestenn Immobilier;31830;PLAISANCE DU TOUCH;95;Avenue des Pyr�n�es;;31424;48888707600021;Agence immobili�re;https://immobilier-sud-ouest-toulouse.nestenn.com/contact;https://immobilier-sud-ouest-toulouse.nestenn.com/;1.2946701;43.5645338;;;;;;;;;;;;;;;;;;;;;;;;;;;;;;;;;;;;;;;;;;;;;;;;;;;;;;;;;
271;Agence Nestenn Immobilier;78370;PLAISIR;3; Rue Pasteur;;78490;84915687200012;Agence immobili�re;https://immobilier-plaisir.nestenn.com/contact;https://immobilier-plaisir.nestenn.com/;1.9434150;48.8171407;;;;;;;;;;;;;;;;;;;;;;;;;;;;;;;;;;;;;;;;;;;;;;;;;;;;;;;;;
272;Agence Nestenn Immobilier;22190;PLERIN;5;Place de la R�publique;;22187;89446917000019;Agence immobili�re;https://immobilier-plerin.nestenn.com/contact;https://immobilier-plerin.nestenn.com/;-2.7622000;48.5384000;;;;;;;;;;;;;;;;;;;;;;;;;;;;;;;;;;;;;;;;;;;;;;;;;;;;;;;;;
273;Agence Nestenn Immobilier;56800;PLOERMEL;12; rue Charles de Gaulle;;56165;79198115200014;Agence immobili�re;https://immobilier-ploermel.nestenn.com/contact;https://immobilier-ploermel.nestenn.com/;-2.3980525;47.9315488;;;;;;;;;;;;;;;;;;;;;;;;;;;;;;;;;;;;;;;;;;;;;;;;;;;;;;;;;
274;Agence Nestenn Immobilier;22580;PLOUHA;14; Avenue Laennec;;22222;78938527500019;Agence immobili�re;https://immobilier-plouha.nestenn.com/contact;https://immobilier-plouha.nestenn.com/;-2.9307300;48.6759600;;;;;;;;;;;;;;;;;;;;;;;;;;;;;;;;;;;;;;;;;;;;;;;;;;;;;;;;;
275;Agence Nestenn Immobilier;56330;PLUVIGNER;4; bis Place du March�;;56177;89033590400011;Agence immobili�re;https://immobilier-pluvigner.nestenn.com/contact;https://immobilier-pluvigner.nestenn.com/;-3.0103084;47.7750577;;;;;;;;;;;;;;;;;;;;;;;;;;;;;;;;;;;;;;;;;;;;;;;;;;;;;;;;;
276;Agence Nestenn Immobilier;50815;"POINTE D'ESNY
ILE MAURICE";;"MU, Blue bay Link Road
50815 Maurice";;0;;Agence immobili�re;https://immobilier-pointe-d-esny.nestenn.com/contact;https://immobilier-pointe-d-esny.nestenn.com/;57.7160165;-20.4404180;;;;;;;;;;;;;;;;;;;;;;;;;;;;;;;;;;;;;;;;;;;;;;;;;;;;;;;;;
277;Agence Nestenn Immobilier;86000;POITIERS;42; Rue Magenta;;86194;49936720900024;Agence immobili�re;https://immobilier-poitiers.nestenn.com/contact;https://immobilier-poitiers.nestenn.com/;0.3395851;46.5781293;;;;;;;;;;;;;;;;;;;;;;;;;;;;;;;;;;;;;;;;;;;;;;;;;;;;;;;;;
278;Agence Nestenn Immobilier;29120;PONT L'ABBE;20; rue Michelet;;29220;88926341400019;Agence immobili�re;https://immobilier-pont-labbe.nestenn.com/contact;https://immobilier-pont-labbe.nestenn.com/;-4.2242000;47.8649900;;;;;;;;;;;;;;;;;;;;;;;;;;;;;;;;;;;;;;;;;;;;;;;;;;;;;;;;;
279;Agence Nestenn Immobilier;77310;PONTHIERRY;64;"Avenue de Fontainebleau
Saint Fargeau Ponthierry";;77407;53436704000019;Agence immobili�re;https://immobilier-saint-fargeau-ponthierry.nestenn.com/contact;https://immobilier-saint-fargeau-ponthierry.nestenn.com/;2.5431000;48.5305000;;;;;;;;;;;;;;;;;;;;;;;;;;;;;;;;;;;;;;;;;;;;;;;;;;;;;;;;;
280;Agence Nestenn Immobilier;56300;PONTIVY;16; Rue du Pont;;56178;49189687400014;Agence immobili�re;https://immobilier-pontivy.nestenn.com/contact;https://immobilier-pontivy.nestenn.com/;-2.9686377;48.0683700;;;;;;;;;;;;;;;;;;;;;;;;;;;;;;;;;;;;;;;;;;;;;;;;;;;;;;;;;
281;Agence Nestenn Immobilier;95300;PONTOISE;21; Rue Thiers;;95500;81335675500013;Agence immobili�re;https://immobilier-pontoise.nestenn.com/contact;https://immobilier-pontoise.nestenn.com/;2.0962794;49.0491871;;;;;;;;;;;;;;;;;;;;;;;;;;;;;;;;;;;;;;;;;;;;;;;;;;;;;;;;;
282;Agence Nestenn Immobilier;30240;PORT CAMARGUE;;"Centre Commercial Le Trident
Route des marines";;30133;75295728200029;Agence immobili�re;https://marina-port-camargue.nestenn.com/contact;https://marina-port-camargue.nestenn.com/;4.1386480;43.5139490;;;;;;;;;;;;;;;;;;;;;;;;;;;;;;;;;;;;;;;;;;;;;;;;;;;;;;;;;
283;Agence Nestenn Immobilier;20144;"PORTO VECCHIO -
SAINTE LUCIE";;Route de Bastia BP2;;20247;78842164200018;Agence immobili�re;https://immobilier-porto-vecchio.nestenn.com/contact;https://immobilier-porto-vecchio.nestenn.com/;9.3442710;41.6981980;;;;;;;;;;;;;;;;;;;;;;;;;;;;;;;;;;;;;;;;;;;;;;;;;;;;;;;;;
284;Agence Nestenn Immobilier;77160;PROVINS;8; Place Marechal Leclerc;;77379;48416702800014;Agence immobili�re;https://immobilier-provins.nestenn.com/contact;https://immobilier-provins.nestenn.com/;3.2993500;48.5605100;;;;;;;;;;;;;;;;;;;;;;;;;;;;;;;;;;;;;;;;;;;;;;;;;;;;;;;;;
285;Agence Nestenn Immobilier;17138;PUILBOREAU;6;Rue de la R�publique;;17291;84877743900029;Agence immobili�re;https://immobilier-puilboreau.nestenn.com/contact;https://immobilier-puilboreau.nestenn.com/;-1.1202496;46.1859787;;;;;;;;;;;;;;;;;;;;;;;;;;;;;;;;;;;;;;;;;;;;;;;;;;;;;;;;;
286;Agence Nestenn Immobilier;92800;PUTEAUX;105; Rue Jean Jaur�s;;92062;48885785500016;Agence immobili�re;https://immobilier-puteaux.nestenn.com/contact;https://immobilier-puteaux.nestenn.com/;2.2395108;48.8820748;;;;;;;;;;;;;;;;;;;;;;;;;;;;;;;;;;;;;;;;;;;;;;;;;;;;;;;;;
287;Agence Nestenn Immobilier;56230;QUESTEMBERT;10;Place de la Lib�ration;;56184;48015128100015;Agence immobili�re;https://immobilier-questembert.nestenn.com/contact;https://immobilier-questembert.nestenn.com/;-2.4527345;47.6607649;;;;;;;;;;;;;;;;;;;;;;;;;;;;;;;;;;;;;;;;;;;;;;;;;;;;;;;;;
288;Agence Nestenn Immobilier;56530;QUEVEN;55; Rue Jean Jaur�s;;56185;49142867800016;Agence immobili�re;https://immobilier-queven.nestenn.com/contact;https://immobilier-queven.nestenn.com/;-3.4158226;47.7867514;;;;;;;;;;;;;;;;;;;;;;;;;;;;;;;;;;;;;;;;;;;;;;;;;;;;;;;;;
289;Agence Nestenn Immobilier;56170;QUIBERON;23; Avenue du G�n�ral de Gaulle;;56186;89403164000010;Agence immobili�re;https://immobilier-quiberon.nestenn.com/contact;https://immobilier-quiberon.nestenn.com/;-3.1214000;47.4904000;;;;;;;;;;;;;;;;;;;;;;;;;;;;;;;;;;;;;;;;;;;;;;;;;;;;;;;;;
290;Agence Nestenn Immobilier;29000;QUIMPER BRADEN;63; Avenue L�on Blum;;29232;49943927100010;Agence immobili�re;https://immobilier-quimper.nestenn.com/contact;https://immobilier-quimper.nestenn.com/;-4.0810600;47.9865500;;;;;;;;;;;;;;;;;;;;;;;;;;;;;;;;;;;;;;;;;;;;;;;;;;;;;;;;;
291;Agence Nestenn Immobilier;29000;QUIMPER KERFEUNTEUN;105; Avenue de la France libre;;29232;49943927100010;Agence immobili�re;https://immobilier-quimper.nestenn.com/contact;https://immobilier-quimper.nestenn.com/;-4.0960990;48.0099270;;;;;;;;;;;;;;;;;;;;;;;;;;;;;;;;;;;;;;;;;;;;;;;;;;;;;;;;;
292;Agence Nestenn Immobilier;29300;QUIMPERLE;6; Rue Isole;;29233;89943587900015;Agence immobili�re;https://immobilier-quimperle.nestenn.com/contact;https://immobilier-quimperle.nestenn.com/;-3.5463240;47.8727290;;;;;;;;;;;;;;;;;;;;;;;;;;;;;;;;;;;;;;;;;;;;;;;;;;;;;;;;;
293;Agence Nestenn Immobilier;78120;RAMBOUILLET ;4; rue Penthi�vre;;78517;83167922000010;Agence immobili�re;https://immobilier-rambouillet.nestenn.com/contact;https://immobilier-rambouillet.nestenn.com/;1.8185767;48.6455255;;;;;;;;;;;;;;;;;;;;;;;;;;;;;;;;;;;;;;;;;;;;;;;;;;;;;;;;;
294;Agence Nestenn Immobilier;51100;REIMS JEAN JAURES;18; bis Avenue Jean Jaur�s;;51454;50495334000016;Agence immobili�re;https://immobilier-reims-jean-jaures.nestenn.com/contact;https://immobilier-reims-jean-jaures.nestenn.com/;4.0410200;49.2580200;;;;;;;;;;;;;;;;;;;;;;;;;;;;;;;;;;;;;;;;;;;;;;;;;;;;;;;;;
295;Agence Nestenn Immobilier;51100;REIMS LAON;113; Avenue de laon;;51454;50495334000016;Agence immobili�re;https://immobilier-reims-jean-jaures.nestenn.com/contact;https://immobilier-reims-jean-jaures.nestenn.com/;4.0247500;49.2667870;;;;;;;;;;;;;;;;;;;;;;;;;;;;;;;;;;;;;;;;;;;;;;;;;;;;;;;;;
296;Agence Nestenn Immobilier;51100;REIMS TINQUEUX;83; avenue de Paris;;51454;81916060700019;Agence immobili�re;https://immobilier-reims-tinqueux.nestenn.com/contact;https://immobilier-reims-tinqueux.nestenn.com/;4.0087700;49.2481470;;;;;;;;;;;;;;;;;;;;;;;;;;;;;;;;;;;;;;;;;;;;;;;;;;;;;;;;;
297;Agence Nestenn Immobilier;35000;RENNES CENTRE;39; Boulevard de la Libert�;;35238;49454105500021;Agence immobili�re;https://immobilier-rennes-centre.nestenn.com/contact;https://immobilier-rennes-centre.nestenn.com/;-1.6821033;48.1078725;;;;;;;;;;;;;;;;;;;;;;;;;;;;;;;;;;;;;;;;;;;;;;;;;;;;;;;;;
298;Agence Nestenn Immobilier;35000;RENNES GESTION;34; Boulevard de la Libert�;;35238;53763998100027;Agence immobili�re;https://immobilier-rennes-centre.nestenn.com/contact;https://immobilier-rennes-centre.nestenn.com/;-1.6821033;48.1078725;;;;;;;;;;;;;;;;;;;;;;;;;;;;;;;;;;;;;;;;;;;;;;;;;;;;;;;;;
299;Agence Nestenn Immobilier;44400;REZE;16;Place Pierre S�mard;;44143;49127838800013;Agence immobili�re;https://immobilier-reze.nestenn.com/contact;https://immobilier-reze.nestenn.com/;-1.5472277;47.1900156;;;;;;;;;;;;;;;;;;;;;;;;;;;;;;;;;;;;;;;;;;;;;;;;;;;;;;;;;
300;Agence Nestenn Immobilier;17300;ROCHEFORT;21; Rue Audry de Puyravault;;17299;50477193200010;Agence immobili�re;https://immobilier-rochefort.nestenn.com/contact;https://immobilier-rochefort.nestenn.com/;-0.9603300;45.9369100;;;;;;;;;;;;;;;;;;;;;;;;;;;;;;;;;;;;;;;;;;;;;;;;;;;;;;;;;
301;Agence Nestenn Immobilier;13840;ROGNES;8;Avenue d'Aix;;13082;45240605100030;Agence immobili�re;https://immobilier-rognes.nestenn.com/contact;https://immobilier-rognes.nestenn.com/;5.3497600;43.6624300;;;;;;;;;;;;;;;;;;;;;;;;;;;;;;;;;;;;;;;;;;;;;;;;;;;;;;;;;
302;Agence Nestenn Immobilier;93110;ROSNY SOUS BOIS;4;, rue Paul Cavar�;;93064;53373407500013;Agence immobili�re;https://immobilier-rosny-sous-bois.nestenn.com/contact;https://immobilier-rosny-sous-bois.nestenn.com/;2.4840000;48.8743400;;;;;;;;;;;;;;;;;;;;;;;;;;;;;;;;;;;;;;;;;;;;;;;;;;;;;;;;;
303;Agence Nestenn Immobilier;92500;RUEIL MALMAISON;6;boulevard du Mar�chal Joffre;;92063;82411258500024;Agence immobili�re;https://immobilier-rueil-malmaison.nestenn.com/contact;https://immobilier-rueil-malmaison.nestenn.com/;2.1834550;48.8795710;;;;;;;;;;;;;;;;;;;;;;;;;;;;;;;;;;;;;;;;;;;;;;;;;;;;;;;;;
304;Agence Nestenn Immobilier;37550;SAINT AVERTIN;15;rue de Cormery;;37208;83446352300011;Agence immobili�re;https://immobilier-stavertin.nestenn.com/contact;https://immobilier-stavertin.nestenn.com/;0.7269420;47.3666308;;;;;;;;;;;;;;;;;;;;;;;;;;;;;;;;;;;;;;;;;;;;;;;;;;;;;;;;;
305;Agence Nestenn Immobilier;57500;SAINT AVOLD;17; Rue de la Piscine;;57606;79534740000025;Agence immobili�re;https://immobilier-saintavold.nestenn.com/contact;https://immobilier-saintavold.nestenn.com/;6.6990000;49.1058600;;;;;;;;;;;;;;;;;;;;;;;;;;;;;;;;;;;;;;;;;;;;;;;;;;;;;;;;;
306;Agence Nestenn Immobilier;83370;SAINT AYGULF;;"Le Victoria
321 Bd Carpeaux";;83925;79258961600012;Agence immobili�re;https://immobilier-saint-aygulf.nestenn.com/contact;https://immobilier-saint-aygulf.nestenn.com/;6.7241100;43.3871980;;;;;;;;;;;;;;;;;;;;;;;;;;;;;;;;;;;;;;;;;;;;;;;;;;;;;;;;;
307;Agence Nestenn Immobilier;49124;SAINT BARTHELEMY D'ANJOU;16; Rue Jean Lur�at;;49267;79270110400012;Agence immobili�re;https://immobilier-stbarthelemy-anjou.nestenn.com/contact;https://immobilier-stbarthelemy-anjou.nestenn.com/;-0.4943472;47.4680522;;;;;;;;;;;;;;;;;;;;;;;;;;;;;;;;;;;;;;;;;;;;;;;;;;;;;;;;;
308;Agence Nestenn Immobilier;69720;SAINT BONNET DE M�RE;1;Rue Jean Fran�ois Ligonnet;;69287;51400963800024;Agence immobili�re;https://immobilier-stbonnetdemure.nestenn.com/contact;https://immobilier-stbonnetdemure.nestenn.com/;5.0168603;45.6958177;;;;;;;;;;;;;;;;;;;;;;;;;;;;;;;;;;;;;;;;;;;;;;;;;;;;;;;;;
309;Agence Nestenn Immobilier;22000;SAINT BRIEUC;3; Rue St Fran�ois;;22278;52453055700015;Agence immobili�re;https://immobilier-stbrieuc.nestenn.com/contact;https://immobilier-stbrieuc.nestenn.com/;-2.7593321;48.5119277;;;;;;;;;;;;;;;;;;;;;;;;;;;;;;;;;;;;;;;;;;;;;;;;;;;;;;;;;
310;Agence Nestenn Immobilier;92210;SAINT CLOUD;54; Boulevard de la R�publique;;92064;52794402900018;Agence immobili�re;https://immobilier-st-cloud.nestenn.com/contact;https://immobilier-st-cloud.nestenn.com/;2.2112029;48.8443520;;;;;;;;;;;;;;;;;;;;;;;;;;;;;;;;;;;;;;;;;;;;;;;;;;;;;;;;;
311;Agence Nestenn Immobilier;78210;SAINT CYR L'ECOLE;9; avenue Jean Jaur�s;;78545;50093544000015;Agence immobili�re;https://immobilier-st-cyr-l-ecole.nestenn.com/contact;https://immobilier-st-cyr-l-ecole.nestenn.com/;2.0671064;48.7998923;;;;;;;;;;;;;;;;;;;;;;;;;;;;;;;;;;;;;;;;;;;;;;;;;;;;;;;;;
312;Agence Nestenn Immobilier;97400;"SAINT DENIS
 LA REUNION";68;Rue Alexis de Villeneuve;;97411;83331163200024;Agence immobili�re;https://immobilier-saint-denis-la-reunion.nestenn.com/contact;https://immobilier-saint-denis-la-reunion.nestenn.com/;55.4506301;-20.8764667;;;;;;;;;;;;;;;;;;;;;;;;;;;;;;;;;;;;;;;;;;;;;;;;;;;;;;;;;
313;Agence Nestenn Immobilier;42000;SAINT ETIENNE BERGSON;139;Rue Bergson;;42218;80537725600013;Agence immobili�re;https://immobilier-saint-etienne.nestenn.com/contact;https://immobilier-saint-etienne.nestenn.com/;4.3979645;45.4276422;;;;;;;;;;;;;;;;;;;;;;;;;;;;;;;;;;;;;;;;;;;;;;;;;;;;;;;;;
314;Agence Nestenn Immobilier;42100;SAINT ETIENNE FAURIEL;48;Cours Fauriel ;;42218;80537725600013;Agence immobili�re;https://immobilier-saint-etienne.nestenn.com/contact;https://immobilier-saint-etienne.nestenn.com/;4.3979645;45.4276422;;;;;;;;;;;;;;;;;;;;;;;;;;;;;;;;;;;;;;;;;;;;;;;;;;;;;;;;;
315;Agence Nestenn Immobilier;34980;SAINT GELY DU FESC;22; Rue des Lavandins;;34255;82230819300017;Agence immobili�re;https://immobilier-st-gely-du-fesc.nestenn.com/contact;https://immobilier-st-gely-du-fesc.nestenn.com/;3.8042140;43.6915130;;;;;;;;;;;;;;;;;;;;;;;;;;;;;;;;;;;;;;;;;;;;;;;;;;;;;;;;;
316;Agence Nestenn Immobilier;66740;SAINT GENIS DES FONTAINES;41; avenue du Mar�chal Joffre;;66175;51194754100021;Agence immobili�re;https://immobilier-saintgenisdesfontaines.nestenn.com/contact;https://immobilier-saintgenisdesfontaines.nestenn.com/;2.9046095;42.5488013;;;;;;;;;;;;;;;;;;;;;;;;;;;;;;;;;;;;;;;;;;;;;;;;;;;;;;;;;
317;Agence Nestenn Immobilier;41350;SAINT GERVAIS LA FOR�T;320; rue des Clouseaux;;41212;50197304400016;Agence immobili�re;https://immobilier-saint-gervais-la-foret.nestenn.com/contact;https://immobilier-saint-gervais-la-foret.nestenn.com/;1.3670673;47.5663770;;;;;;;;;;;;;;;;;;;;;;;;;;;;;;;;;;;;;;;;;;;;;;;;;;;;;;;;;
318;Agence Nestenn Immobilier;85800;SAINT GILLES CROIX DE VIE;2; rue Gautt�;;85222;48698026100037;Agence immobili�re;https://immobilier-stgillescroixdevie.nestenn.com/contact;https://immobilier-stgillescroixdevie.nestenn.com/;-1.9338487;46.6963314;;;;;;;;;;;;;;;;;;;;;;;;;;;;;;;;;;;;;;;;;;;;;;;;;;;;;;;;;
319;Agence Nestenn Immobilier;85800;SAINT GILLES CROIX DE VIE 2;93; Boulevard Georges Pompidou;;85222;48698026100037;Agence immobili�re;https://immobilier-stgillescroixdevie.nestenn.com/contact;https://immobilier-stgillescroixdevie.nestenn.com/;-1.9488330;46.7015070;;;;;;;;;;;;;;;;;;;;;;;;;;;;;;;;;;;;;;;;;;;;;;;;;;;;;;;;;
320;Agence Nestenn Immobilier;44800;SAINT HERBLAIN;29;Rue Pierre Blard;;44162;48871460100017;Agence immobili�re;https://immobilier-saintherblain.nestenn.com/contact;https://immobilier-saintherblain.nestenn.com/;-1.6537930;47.2120350;;;;;;;;;;;;;;;;;;;;;;;;;;;;;;;;;;;;;;;;;;;;;;;;;;;;;;;;;
321;Agence Nestenn Immobilier;64500;SAINT JEAN DE LUZ;45;Boulevard Victor Hugo;;64483;45145940800014;Agence immobili�re;https://immobilier-saintjeandeluz.nestenn.com/contact;https://immobilier-saintjeandeluz.nestenn.com/;-1.6580909;43.3888345;;;;;;;;;;;;;;;;;;;;;;;;;;;;;;;;;;;;;;;;;;;;;;;;;;;;;;;;;
322;Agence Nestenn Immobilier;42170;SAINT JUST SAINT RAMBERT;131; Boulevard Jean Jaur�s;;42279;53132180000017;Agence immobili�re;https://immobilier-saintjustsaintrambert.nestenn.com/contact;https://immobilier-saintjustsaintrambert.nestenn.com/;4.2633042;45.5125888;;;;;;;;;;;;;;;;;;;;;;;;;;;;;;;;;;;;;;;;;;;;;;;;;;;;;;;;;
323;Agence Nestenn Immobilier;35400;SAINT MALO PARAME;15; Rue Gustave Flaubert;;35288;49957865600013;Agence immobili�re;https://immobilier-saint-malo.nestenn.com/contact;https://immobilier-saint-malo.nestenn.com/;-2.0134850;48.6341380;;;;;;;;;;;;;;;;;;;;;;;;;;;;;;;;;;;;;;;;;;;;;;;;;;;;;;;;;
324;Agence Nestenn Immobilier;35400;SAINT MALO SAINT SERVAN;76; Rue Ville P�pin;;35288;49957865600013;Agence immobili�re;https://immobilier-saint-malo.nestenn.com/contact;https://immobilier-saint-malo.nestenn.com/;-1.9839400;48.6579830;;;;;;;;;;;;;;;;;;;;;;;;;;;;;;;;;;;;;;;;;;;;;;;;;;;;;;;;;
325;Agence Nestenn Immobilier;94100;SAINT MAUR DES FOSSES;67-69;Avenue de la R�publique;;94068;49467302300029;Agence immobili�re;https://immobilier-saint-maur-des-fosses.nestenn.com/contact;https://immobilier-saint-maur-des-fosses.nestenn.com/;2.4860900;48.8013500;;;;;;;;;;;;;;;;;;;;;;;;;;;;;;;;;;;;;;;;;;;;;;;;;;;;;;;;;
326;Agence Nestenn Immobilier;33160;SAINT MEDARD EN JALLES;97;avenue Montesquieu;;33449;83196852400015;Agence immobili�re;https://immobilier-saint-medard-en-jalles.nestenn.com/contact;https://immobilier-saint-medard-en-jalles.nestenn.com/;-0.7216910;44.8955849;;;;;;;;;;;;;;;;;;;;;;;;;;;;;;;;;;;;;;;;;;;;;;;;;;;;;;;;;
327;Agence Nestenn Immobilier;35290;SAINT MEEN LE GRAND;7;Place de la Mairie;;35297;78864130600022;Agence immobili�re;https://immobilier-saintmeenlegrand.nestenn.com/contact;https://immobilier-saintmeenlegrand.nestenn.com/;-2.1923446;48.1895176;;;;;;;;;;;;;;;;;;;;;;;;;;;;;;;;;;;;;;;;;;;;;;;;;;;;;;;;;
328;Agence Nestenn Immobilier;44600;SAINT NAZAIRE;93; Avenue de la R�publique;;44184;43196370100013;Agence immobili�re;https://immobilier-stnazaire.nestenn.comcontact;https://immobilier-stnazaire.nestenn.com;-2.2116220;47.2825110;;;;;;;;;;;;;;;;;;;;;;;;;;;;;;;;;;;;;;;;;;;;;;;;;;;;;;;;;
329;Agence Nestenn Immobilier;93400;SAINT OUEN SUR SEINE;150;Avenue Gabriel P�ri;;93070;90137448800012;Agence immobili�re;https://immobilier-saint-ouen-sur-seine.nestenn.com/contact;https://immobilier-saint-ouen-sur-seine.nestenn.com/;2.3314000;48.9104000;;;;;;;;;;;;;;;;;;;;;;;;;;;;;;;;;;;;;;;;;;;;;;;;;;;;;;;;;
330;Agence Nestenn Immobilier;37700;SAINT PIERRE DES CORPS;30; Avenue de la R�publique;;37233;53832677800031;Agence immobili�re;https://immobilier-saintpierredescorps.nestenn.com/contact;https://immobilier-saintpierredescorps.nestenn.com/;0.7230124;47.3897579;;;;;;;;;;;;;;;;;;;;;;;;;;;;;;;;;;;;;;;;;;;;;;;;;;;;;;;;;
331;Agence Nestenn Immobilier;69800;SAINT PRIEST ;14;, rue Henri Mar�chal ;;69290;82794315000017;Agence immobili�re;https://immobilier-saint-priest.nestenn.com/contact;https://immobilier-saint-priest.nestenn.com/;4.9360153;45.6910920;;;;;;;;;;;;;;;;;;;;;;;;;;;;;;;;;;;;;;;;;;;;;;;;;;;;;;;;;
332;Agence Nestenn Immobilier;22410;SAINT QUAY PORTRIEUX;14; Rue Jeanne d'Arc;;22325;78938527500019;Agence immobili�re;https://immobilier-stquay.nestenn.com/contact;https://immobilier-stquay.nestenn.com/;-2.8356583;48.6542586;;;;;;;;;;;;;;;;;;;;;;;;;;;;;;;;;;;;;;;;;;;;;;;;;;;;;;;;;
333;Agence Nestenn Immobilier;83700;SAINT RAPHA�L;60;Rue Gambetta;;83118;48144228300018;Agence immobili�re;https://immobilier-saint-raphael.nestenn.com/contact;https://immobilier-saint-raphael.nestenn.com/;6.7673337;43.4245010;;;;;;;;;;;;;;;;;;;;;;;;;;;;;;;;;;;;;;;;;;;;;;;;;;;;;;;;;
334;Agence Nestenn Immobilier;13730;SAINT VICTORET - MARIGNANE;53;Boulevard Barthelemy Abbadie;;13102;81238954200018;Agence immobili�re;https://immobilier-marignane.nestenn.com/contact;https://immobilier-marignane.nestenn.com/;5.2347730;43.4201410;;;;;;;;;;;;;;;;;;;;;;;;;;;;;;;;;;;;;;;;;;;;;;;;;;;;;;;;;
335;Agence Nestenn Immobilier;83120;SAINTE MAXIME;8; rue F�lix Martin;;83115;39943512200045;Agence immobili�re;https://immobilier-sainte-maxime.nestenn.com/contact;https://immobilier-sainte-maxime.nestenn.com/;6.6367940;43.3100600;;;;;;;;;;;;;;;;;;;;;;;;;;;;;;;;;;;;;;;;;;;;;;;;;;;;;;;;;
336;Agence Nestenn Immobilier;13300;SALON DE PROVENCE;242; All�e de Craponne;;13103;84423010200015;Agence immobili�re;https://immobilier-salon-de-provence.nestenn.com/contact;https://immobilier-salon-de-provence.nestenn.com/;5.0997090;43.6357820;;;;;;;;;;;;;;;;;;;;;;;;;;;;;;;;;;;;;;;;;;;;;;;;;;;;;;;;;
337;Agence Nestenn Immobilier;56370;SARZEAU;7;All�e des Ducs de Bretagne;;56240;49321168400011;Agence immobili�re;https://immobilier-sarzeau.nestenn.com/contact;https://immobilier-sarzeau.nestenn.com/;-2.7677071;47.5232851;;;;;;;;;;;;;;;;;;;;;;;;;;;;;;;;;;;;;;;;;;;;;;;;;;;;;;;;;
338;Agence Nestenn Immobilier;69580;SATHONAY CAMP;21; Boulevard Castellane;;69292;84410944700020;Agence immobili�re;https://immobilier-sathonay.nestenn.com/contact;https://immobilier-sathonay.nestenn.com/;4.8740910;45.8246200;;;;;;;;;;;;;;;;;;;;;;;;;;;;;;;;;;;;;;;;;;;;;;;;;;;;;;;;;
339;Agence Nestenn Immobilier;49400;SAUMUR;41; Rue Dacier;;49328;81978151900015;Agence immobili�re;https://immobilier-saumur.nestenn.com/contact;https://immobilier-saumur.nestenn.com/;-0.0774738;47.2591473;;;;;;;;;;;;;;;;;;;;;;;;;;;;;;;;;;;;;;;;;;;;;;;;;;;;;;;;;
340;Agence Nestenn Immobilier;78790;SEPTEUIL;1;rue Ferdinand Br�an;;78591;84275618100025;Agence immobili�re;https://immobilier-septeuil.nestenn.com/contact;https://immobilier-septeuil.nestenn.com/;1.7151180;48.8504410;;;;;;;;;;;;;;;;;;;;;;;;;;;;;;;;;;;;;;;;;;;;;;;;;;;;;;;;;
341;Agence Nestenn Immobilier;92310;SEVRES;123;Grande Rue;;92072;85183808600011;Agence immobili�re;https://immobilier-sevres.nestenn.com/contact;https://immobilier-sevres.nestenn.com/;2.2042068;48.8216759;;;;;;;;;;;;;;;;;;;;;;;;;;;;;;;;;;;;;;;;;;;;;;;;;;;;;;;;;
342;Agence Nestenn Immobilier;04200;SISTERON;;Parc d'activit�s Val Durance Immo - All�e des Genets;;4209;79917826400013;Agence immobili�re;https://immobilier-sisteron.nestenn.com/contact;https://immobilier-sisteron.nestenn.com/;5.9114700;44.2372400;;;;;;;;;;;;;;;;;;;;;;;;;;;;;;;;;;;;;;;;;;;;;;;;;;;;;;;;;
343;Agence Nestenn Immobilier;83140;SIX FOURS LES PLAGES;210; boulevard des Ecoles;;83129;48809063000010;Agence immobili�re;https://immobilier-six-fours-les-plages.nestenn.com/contact;https://immobilier-six-fours-les-plages.nestenn.com/;5.8139200;43.1098000;;;;;;;;;;;;;;;;;;;;;;;;;;;;;;;;;;;;;;;;;;;;;;;;;;;;;;;;;
344;Agence Nestenn Immobilier;83210;SOLLIES PONT;3;rue de la R�publique;;83130;83026591400010;Agence immobili�re;https://immobilier-sollies.nestenn.com/contact;https://immobilier-sollies.nestenn.com/;6.0413650;43.1924320;;;;;;;;;;;;;;;;;;;;;;;;;;;;;;;;;;;;;;;;;;;;;;;;;;;;;;;;;
345;Agence Nestenn Immobilier;59490;SOMAIN;27; Rue Pasteur;;59574;50441953200040;Agence immobili�re;https://immobilier-somain.nestenn.com/contact;https://immobilier-somain.nestenn.com/;3.2803169;50.3603594;;;;;;;;;;;;;;;;;;;;;;;;;;;;;;;;;;;;;;;;;;;;;;;;;;;;;;;;;
346;Agence Nestenn Immobilier;92150;SURESNES;77;Rue Carnot;;92073;52295433800029;Agence immobili�re;https://immobilier-suresnes.nestenn.com/contact;https://immobilier-suresnes.nestenn.com/;2.2293000;48.8766700;;;;;;;;;;;;;;;;;;;;;;;;;;;;;;;;;;;;;;;;;;;;;;;;;;;;;;;;;
347;Agence Nestenn Immobilier;56450;SURZUR ;12;Place de l'Eglise;;56248;83934334000015;Agence immobili�re;https://immobilier-surzur.nestenn.com/contact;https://immobilier-surzur.nestenn.com/;-2.6317833;47.5774318;;;;;;;;;;;;;;;;;;;;;;;;;;;;;;;;;;;;;;;;;;;;;;;;;;;;;;;;;
348;Agence Nestenn Immobilier;33400;TALENCE;241; bis Cours Gambetta;;33522;48118060200023;Agence immobili�re;https://immobilier-talence.nestenn.com/contact;https://immobilier-talence.nestenn.com/;-0.5903963;44.8135101;;;;;;;;;;;;;;;;;;;;;;;;;;;;;;;;;;;;;;;;;;;;;;;;;;;;;;;;;
349;Agence Nestenn Immobilier;57100;THIONVILLE;03-janv; Place de la vieille porte;;57672;84937498800012;Agence immobili�re;https://immobilier-thionville.nestenn.com/contact;https://immobilier-thionville.nestenn.com/;6.1656773;49.3598040;;;;;;;;;;;;;;;;;;;;;;;;;;;;;;;;;;;;;;;;;;;;;;;;;;;;;;;;;
350;Agence Nestenn Immobilier;60150;THOUROTTE;73; rue de la R�publique;;60636;51997946200032;Agence immobili�re;https://immobilier-thourotte.nestenn.com/contact;https://immobilier-thourotte.nestenn.com/;2.8789790;49.4793520;;;;;;;;;;;;;;;;;;;;;;;;;;;;;;;;;;;;;;;;;;;;;;;;;;;;;;;;;
351;Agence Nestenn Immobilier;49125;TIERCE;2;Rue du Val de Sarthe;;49347;49760034600017;Agence immobili�re;https://immobilier-tierce.nestenn.com/contact;https://immobilier-tierce.nestenn.com/;-0.4684714;47.6145871;;;;;;;;;;;;;;;;;;;;;;;;;;;;;;;;;;;;;;;;;;;;;;;;;;;;;;;;;
352;Agence Nestenn Immobilier;77200;TORCY;58; Bis Rue de Paris ;;77468;78972044800016;Agence immobili�re;https://immobilier-torcy.nestenn.com/contact;https://immobilier-torcy.nestenn.com/;2.6509675;48.8509698;;;;;;;;;;;;;;;;;;;;;;;;;;;;;;;;;;;;;;;;;;;;;;;;;;;;;;;;;
353;Agence Nestenn Immobilier;66440;TORREILLES;22; Place Louis Blasi;;66212;90232837600014;Agence immobili�re;https://immobilier-torreilles.nestenn.com/contact;https://immobilier-torreilles.nestenn.com/;2.9921300;42.7549300;;;;;;;;;;;;;;;;;;;;;;;;;;;;;;;;;;;;;;;;;;;;;;;;;;;;;;;;;
354;Agence Nestenn Immobilier;2560-640;"TORRES VEDRAS
(Portugal)";;Pateo do Angelo n�1;;NULL;;Agence immobili�re;https://immobilier-torres-vedras.nestenn.com/contact;https://immobilier-torres-vedras.nestenn.com/;-9.2611035;39.0955200;;;;;;;;;;;;;;;;;;;;;;;;;;;;;;;;;;;;;;;;;;;;;;;;;;;;;;;;;
355;Agence Nestenn Immobilier;83000;TOULON ;64; Rue Victor Clappier;;83137;47786256900027;Agence immobili�re;https://immobilier-toulon.nestenn.com/contact;https://immobilier-toulon.nestenn.com/;5.9357700;43.1254400;;;;;;;;;;;;;;;;;;;;;;;;;;;;;;;;;;;;;;;;;;;;;;;;;;;;;;;;;
356;Agence Nestenn Immobilier;83000;TOULON MOURILLON;216; boulevard Cun�o;;83137;80182539900018;Agence immobili�re;https://immobilier-toulon-le-mourillon.nestenn.com/contact;https://immobilier-toulon-le-mourillon.nestenn.com/;5.9337230;43.1073630;;;;;;;;;;;;;;;;;;;;;;;;;;;;;;;;;;;;;;;;;;;;;;;;;;;;;;;;;
357;Agence Nestenn Immobilier;66350;TOULOUGES;24;, Avenue Aristide Maillol;;66213;33957241400037;Agence immobili�re;https://immobilier-toulouges.nestenn.com/contact;https://immobilier-toulouges.nestenn.com/;2.8287033;42.6696688;;;;;;;;;;;;;;;;;;;;;;;;;;;;;;;;;;;;;;;;;;;;;;;;;;;;;;;;;
358;Agence Nestenn Immobilier;31400;TOULOUSE RANGUEIL;79; Route de Narbonne;;31555;50421016200013;Agence immobili�re;https://immobilier-toulouse-rangueil.nestenn.com/contact;https://immobilier-toulouse-rangueil.nestenn.com/;1.4568000;43.5685100;;;;;;;;;;;;;;;;;;;;;;;;;;;;;;;;;;;;;;;;;;;;;;;;;;;;;;;;;
359;Agence Nestenn Immobilier;37000;TOURS CENTRE;101; rue des Halles;;37261;88139875400021;Agence immobili�re;https://immobilier-tours-centre.nestenn.com/contact;https://immobilier-tours-centre.nestenn.com/;0.6795716;47.3930630;;;;;;;;;;;;;;;;;;;;;;;;;;;;;;;;;;;;;;;;;;;;;;;;;;;;;;;;;
360;Agence Nestenn Immobilier;37100;"TOURS NORD
ST CYR";21; Avenue de la  Tranch�e;;37261;51328178200021;Agence immobili�re;https://immobilier-stcyr-tours-nord.nestenn.com/contact;https://immobilier-stcyr-tours-nord.nestenn.com/;0.6840834;47.4025603;;;;;;;;;;;;;;;;;;;;;;;;;;;;;;;;;;;;;;;;;;;;;;;;;;;;;;;;;
361;Agence Nestenn Immobilier;13530;TRETS;6; Bd de la R�publique;;13110;83288063700018;Agence immobili�re;https://immobilier-trets.nestenn.com/contact;https://immobilier-trets.nestenn.com/;5.6845987;43.4477039;;;;;;;;;;;;;;;;;;;;;;;;;;;;;;;;;;;;;;;;;;;;;;;;;;;;;;;;;
362;Agence Nestenn Immobilier;36600;VALENCAY;1; Rue du Ch�teau;;36228;48455572700029;Agence immobili�re;https://immobilier-valencay.nestenn.com/contact;https://immobilier-valencay.nestenn.com/;1.5639847;47.1593048;;;;;;;;;;;;;;;;;;;;;;;;;;;;;;;;;;;;;;;;;;;;;;;;;;;;;;;;;
363;Agence Nestenn Immobilier;26000;VALENCE;209; Avenue Victor Hugo;;26362;53297278300015;Agence immobili�re;https://immobilier-valence.nestenn.com/contact;https://immobilier-valence.nestenn.com/;4.8860200;44.9210200;;;;;;;;;;;;;;;;;;;;;;;;;;;;;;;;;;;;;;;;;;;;;;;;;;;;;;;;;
364;Agence Nestenn Immobilier;94460;VALENTON;49;rue du Colonel Fabien;;94074;82144086400014;Agence immobili�re;https://immobilier-valenton.nestenn.com/contact;https://immobilier-valenton.nestenn.com/;2.4705940;48.7444350;;;;;;;;;;;;;;;;;;;;;;;;;;;;;;;;;;;;;;;;;;;;;;;;;;;;;;;;;
365;Agence Nestenn Immobilier;44330;VALLET;2; Rue Fran�ois Luneau;;44212;43987866100024;Agence immobili�re;https://immobilier-vallet.nestenn.com/contact;https://immobilier-vallet.nestenn.com/;-1.2660520;47.1616130;;;;;;;;;;;;;;;;;;;;;;;;;;;;;;;;;;;;;;;;;;;;;;;;;;;;;;;;;
366;Agence Nestenn Immobilier;56000;VANNES;8; bis Place Maurice Marchais;;56260;44262981200029;Agence immobili�re;https://immobilier-vannes.nestenn.com/contact;https://immobilier-vannes.nestenn.com/;-2.7597815;47.6583073;;;;;;;;;;;;;;;;;;;;;;;;;;;;;;;;;;;;;;;;;;;;;;;;;;;;;;;;;
367;Agence Nestenn Immobilier;56880;"VANNES ENTREPRISES  ET COMMERCES
(PLOEREN)";1;"Avenue Louis de Cadoudal
56880 PLOEREN";;56164;79276989500014;Agence immobili�re;https://immobilier-vannes-entreprises-commerces.nestenn.com/contact;https://immobilier-vannes-entreprises-commerces.nestenn.com/;-2.8034000;47.6623000;;;;;;;;;;;;;;;;;;;;;;;;;;;;;;;;;;;;;;;;;;;;;;;;;;;;;;;;;
368;Agence Nestenn Immobilier;69200;VENISSIEUX;72; Rue Jean Jaures;;69259;75048048500028;Agence immobili�re;https://immobilier-venissieux.nestenn.com/contact;https://immobilier-venissieux.nestenn.com/;4.8825800;45.7002000;;;;;;;;;;;;;;;;;;;;;;;;;;;;;;;;;;;;;;;;;;;;;;;;;;;;;;;;;
369;Agence Nestenn Immobilier;55100;VERDUN;1;rue du Pr�sident Poincar�;;55545;40183121900035;Agence immobili�re;https://immobilier-verdun.nestenn.com/contact;https://immobilier-verdun.nestenn.com/;5.3838283;49.1592240;;;;;;;;;;;;;;;;;;;;;;;;;;;;;;;;;;;;;;;;;;;;;;;;;;;;;;;;;
370;Agence Nestenn Immobilier;27200;VERNON;7; Rue des Tanneurs;;27681;85228473600018;Agence immobili�re;https://immobilier-vernon.nestenn.com/contact;https://immobilier-vernon.nestenn.com/;1.4827807;49.0922880;;;;;;;;;;;;;;;;;;;;;;;;;;;;;;;;;;;;;;;;;;;;;;;;;;;;;;;;;
371;Agence Nestenn Immobilier;95270;VIARMES;57;Rue de Paris;;95652;42286993300040;Agence immobili�re;https://immobilier-viarmes.nestenn.com/contact;https://immobilier-viarmes.nestenn.com/;2.3701824;49.1275982;;;;;;;;;;;;;;;;;;;;;;;;;;;;;;;;;;;;;;;;;;;;;;;;;;;;;;;;;
372;Agence Nestenn Immobilier;38200;VIENNE;5;Place Saint Maurice;;38544;89337122900012;Agence immobili�re;https://immobilier-vienne.nestenn.com/contact;https://immobilier-vienne.nestenn.com/;4.8720649;45.5245380;;;;;;;;;;;;;;;;;;;;;;;;;;;;;;;;;;;;;;;;;;;;;;;;;;;;;;;;;
373;Agence Nestenn Immobilier;49310;"VIHIERS -
LYS HAUT LAYON";10;rue Vall�e;;49373;43336341300017;Agence immobili�re;https://immobilier-vihiers.nestenn.com/contact;https://immobilier-vihiers.nestenn.com/;-0.5341453;47.1452220;;;;;;;;;;;;;;;;;;;;;;;;;;;;;;;;;;;;;;;;;;;;;;;;;;;;;;;;;
374;Agence Nestenn Immobilier;31290;VILLEFRANCHE DE LAURAGAIS;2;Place des Cerisiers;;31582;84283048100011;Agence immobili�re;https://immobilier-villefranchedelauragais.nestenn.com/contact;https://immobilier-villefranchedelauragais.nestenn.com/;1.7126400;43.4020000;;;;;;;;;;;;;;;;;;;;;;;;;;;;;;;;;;;;;;;;;;;;;;;;;;;;;;;;;
375;Agence Nestenn Immobilier;69400;VILLEFRANCHE SUR SAONE;200;Rue de la R�publique;;69264;89118229700012;Agence immobili�re;https://immobilier-villefranche-sur-saone.nestenn.com/contact;https://immobilier-villefranche-sur-saone.nestenn.com/;4.7188210;45.9914710;;;;;;;;;;;;;;;;;;;;;;;;;;;;;;;;;;;;;;;;;;;;;;;;;;;;;;;;;
376;Agence Nestenn Immobilier;33140;VILLENAVE D'ORNON ;463;"Route de Toulouse
Le Clos Delphin";;33550;53329878200012;Agence immobili�re;https://immobilier-villenavedornon.nestenn.com/contact;https://immobilier-villenavedornon.nestenn.com/;-0.5696784;44.7884779;;;;;;;;;;;;;;;;;;;;;;;;;;;;;;;;;;;;;;;;;;;;;;;;;;;;;;;;;
377;Agence Nestenn Immobilier;47300;VILLENEUVE SUR LOT;4;Place de la Lib�ration;;47323;52912894400038;Agence immobili�re;https://immobilier-villeneuve-sur-lot.nestenn.com/contact;https://immobilier-villeneuve-sur-lot.nestenn.com/;0.7075573;44.4084135;;;;;;;;;;;;;;;;;;;;;;;;;;;;;;;;;;;;;;;;;;;;;;;;;;;;;;;;;
378;Agence Nestenn Immobilier;2600;VILLERS COTTER�TS;17;rue Alexandre Dumas;;2810;83527446500025;Agence immobili�re;https://immobilier-villers-cotterets.nestenn.com/contact;https://immobilier-villers-cotterets.nestenn.com/;3.0962800;49.2489300;;;;;;;;;;;;;;;;;;;;;;;;;;;;;;;;;;;;;;;;;;;;;;;;;;;;;;;;;
379;Agence Nestenn Immobilier;69100;VILLEURBANNE OUEST;121;cours Emile Zola;;69266;49391619100015;Agence immobili�re;https://immobilier-villeurbanne.nestenn.com/contact;https://immobilier-villeurbanne.nestenn.com/;4.8746300;45.7704800;;;;;;;;;;;;;;;;;;;;;;;;;;;;;;;;;;;;;;;;;;;;;;;;;;;;;;;;;
380;Agence Nestenn Immobilier;69100;VILLEURBANNE EST;245; Rue du 4 Aout 1789;;69266;89390147000011;Agence immobili�re;https://immobilier-villeurbanne-est.nestenn.com/contact;https://immobilier-villeurbanne-est.nestenn.com/;4.8989000;45.7662000;;;;;;;;;;;;;;;;;;;;;;;;;;;;;;;;;;;;;;;;;;;;;;;;;;;;;;;;;
381;Agence Nestenn Immobilier;13127;VITROLLES;;Place de Provence ;;13117;50529943800018;Agence immobili�re;https://immobilier-vitrolles.nestenn.com/contact;https://immobilier-vitrolles.nestenn.com/;5.2488500;43.4474700;;;;;;;;;;;;;;;;;;;;;;;;;;;;;;;;;;;;;;;;;;;;;;;;;;;;;;;;;
382;Agence Nestenn Immobilier;94400;VITRY SUR SEINE;47; Avenue de l'Abb� Roger Derry;;94081;45086732000019;Agence immobili�re;https://immobilier-vitry-sur-seine.nestenn.com/contact;https://immobilier-vitry-sur-seine.nestenn.com/;2.3875140;48.7894124;;;;;;;;;;;;;;;;;;;;;;;;;;;;;;;;;;;;;;;;;;;;;;;;;;;;;;;;;
383;Agence Nestenn Immobilier;59118;WAMBRECHIES;467;" Rue de Quesnoy
Centre Cial Match";;59636;85229418000017;Agence immobili�re;https://immobilier-wambrechies.nestenn.com/contact;https://immobilier-wambrechies.nestenn.com/;3.0493230;50.6922848;;;;;;;;;;;;;;;;;;;;;;;;;;;;;;;;;;;;;;;;;;;;;;;;;;;;;;;;;
384;Agence Nestenn Immobilier;91330;YERRES;46; Rue Charles de Gaulle;;91691;82284235700037;Agence immobili�re;https://immobilier-yerres.nestenn.com/contact;https://immobilier-yerres.nestenn.com/;2.4896700;48.7163400;;;;;;;;;;;;;;;;;;;;;;;;;;;;;;;;;;;;;;;;;;;;;;;;;;;;;;;;;
385;Agence Nestenn Immobilier;22120;YFFINIAC;6; Rue des Gr�ves;;22389;50020637000016;Agence immobili�re;https://immobilier-yffiniac.nestenn.com/contact;https://immobilier-yffiniac.nestenn.com/;-2.6760587;48.4836031;;;;;;;;;;;;;;;;;;;;;;;;;;;;;;;;;;;;;;;;;;;;;;;;;;;;;;;;;
386;Agence Nestenn Immobilier;43200;YSSINGEAUX;16; b Place du Mar�chal Foch;;43268;53410534100026;Agence immobili�re;https://immobilier-yssingeaux.nestenn.com/contact;https://immobilier-yssingeaux.nestenn.com/;4.1247080;45.1415780;;;;;;;;;;;;;;;;;;;;;;;;;;;;;;;;;;;;;;;;;;;;;;;;;;;;;;;;;
